{
"type": "FeatureCollection",
"name": "INVENTARIO DE ASENTAMIENTOS IRREGULARES",
"crs": { "type": "name", "properties": { "name": "urn:ogc:def:crs:OGC:1.3:CRS84" } },
"features": [
{ "type": "Feature", "properties": { "Area": 2384.52, "Perimetro": 242.121, "Colonia": "Luis Donaldo Colosio", "Status": "Pendiente de entrega de escrituras", "Origen": "Ejidal", "Institucio": "INSUS", "Poligono": "Luis Donaldo Colosio", "No_Lotes": "NO APLICA", "Via_de_Reg": "Subdivision", "Status_Gen": "Regular", "Area Has": 0.239 }, "geometry": { "type": "MultiPolygon", "coordinates": [ [ [ [ -99.246037419985029, 19.587535753938177, 0.0 ], [ -99.245320792557564, 19.587511634431184, 0.0 ], [ -99.245310541807811, 19.587410551004726, 0.0 ], [ -99.245308165708465, 19.587314879088595, 0.0 ], [ -99.245297040146781, 19.587209079513759, 0.0 ], [ -99.245284521044923, 19.587127519175894, 0.0 ], [ -99.245281363566647, 19.587019566980477, 0.0 ], [ -99.245277857782497, 19.586939765640199, 0.0 ], [ -99.246037419985029, 19.587535753938177, 0.0 ] ] ] ] } },
{ "type": "Feature", "properties": { "Area": 46366.8, "Perimetro": 968.585, "Colonia": "Luis Donaldo Colosio", "Status": "Pendiente de entrega de escrituras", "Origen": "Ejidal", "Institucio": "INSUS", "Poligono": "Luis Donaldo Colosio", "No_Lotes": "197", "Via_de_Reg": "Subdivision", "Status_Gen": "En proceso de regularización", "Area Has": 4.64 }, "geometry": { "type": "MultiPolygon", "coordinates": [ [ [ [ -99.245219658211511, 19.587508229470245, 0.0 ], [ -99.242215542610978, 19.587407089475665, 0.0 ], [ -99.242212459452503, 19.587200814090625, 0.0 ], [ -99.242237072989099, 19.586979997044356, 0.0 ], [ -99.242343676145666, 19.586662102354786, 0.0 ], [ -99.242389635602066, 19.586605116252091, 0.0 ], [ -99.242465075588598, 19.586566056143276, 0.0 ], [ -99.242550951038865, 19.5864342619073, 0.0 ], [ -99.242668619555246, 19.586451156502438, 0.0 ], [ -99.242712323539649, 19.586187170845996, 0.0 ], [ -99.242790352271754, 19.586094210192382, 0.0 ], [ -99.242921737143547, 19.585961993020113, 0.0 ], [ -99.242861586492552, 19.585946702025204, 0.0 ], [ -99.242918862515253, 19.585857194301507, 0.0 ], [ -99.242991963632761, 19.585727594986384, 0.0 ], [ -99.243022443429098, 19.585648949710766, 0.0 ], [ -99.243004311279307, 19.585644853252688, 0.0 ], [ -99.243026068012625, 19.585573539735215, 0.0 ], [ -99.243124655447403, 19.585322927113303, 0.0 ], [ -99.243124979882907, 19.585272265008523, 0.0 ], [ -99.243205750755592, 19.585164434538157, 0.0 ], [ -99.243218165811626, 19.585323569173116, 0.0 ], [ -99.2451702985379, 19.586855370387401, 0.0 ], [ -99.245180314434066, 19.586936816658284, 0.0 ], [ -99.245182281066604, 19.587023452096648, 0.0 ], [ -99.245186358617033, 19.587140855788082, 0.0 ], [ -99.245198896918609, 19.587222533588523, 0.0 ], [ -99.24520903302772, 19.587317227992362, 0.0 ], [ -99.24521281059026, 19.587469496989449, 0.0 ], [ -99.245219658211511, 19.587508229470245, 0.0 ] ] ] ] } },
{ "type": "Feature", "properties": { "Area": 1379.55, "Perimetro": 170.235, "Colonia": "Bosques de San Martin", "Status": "Liberacion de dictamen de Proteccion Civil/ Comun", "Origen": "Propiedad Privada", "Institucio": "IMEVIS", "Poligono": "La Cañada lote 06", "No_Lotes": "9", "Via_de_Reg": "Certificacion de vias publicas", "Status_Gen": "En proceso de regularización", "Area Has": 0.138 }, "geometry": { "type": "MultiPolygon", "coordinates": [ [ [ [ -99.248507070948207, 19.543607101581195, 0.0 ], [ -99.248451943981578, 19.543588109156815, 0.0 ], [ -99.248366650271677, 19.543540329895755, 0.0 ], [ -99.248369013349418, 19.543527222877181, 0.0 ], [ -99.248291325618894, 19.543403973481507, 0.0 ], [ -99.248277467046492, 19.54338013462819, 0.0 ], [ -99.248242599183271, 19.543393918907594, 0.0 ], [ -99.248225052517597, 19.543389424475198, 0.0 ], [ -99.248218892190735, 19.543350483111535, 0.0 ], [ -99.248209007295628, 19.543307028323056, 0.0 ], [ -99.248192922432963, 19.543261051667848, 0.0 ], [ -99.248161813046181, 19.543176778416498, 0.0 ], [ -99.248150993852036, 19.543145705711098, 0.0 ], [ -99.248120986383171, 19.543096314079218, 0.0 ], [ -99.248261906938467, 19.543053917311763, 0.0 ], [ -99.24831157214625, 19.543054572024989, 0.0 ], [ -99.248440017622841, 19.543082681513219, 0.0 ], [ -99.248507070948207, 19.543607101581195, 0.0 ] ] ] ] } },
{ "type": "Feature", "properties": { "Area": 21681.2, "Perimetro": 610.592, "Colonia": "Bosques de San Martin", "Status": "Liberacion de dictamen de Proteccion Civil/ Comun", "Origen": "Propiedad Privada", "Institucio": "IMEVIS", "Poligono": "La Cañada lote 08", "No_Lotes": "61", "Via_de_Reg": "Certificacion de vias publicas", "Status_Gen": "En proceso de regularización", "Area Has": 2.17 }, "geometry": { "type": "MultiPolygon", "coordinates": [ [ [ [ -99.246703056668608, 19.541571049992868, 2360.0 ], [ -99.246218647879402, 19.541805604339231, 2360.0 ], [ -99.245432631551651, 19.541754230548278, 2360.0 ], [ -99.245449921097503, 19.541567505298371, 2360.0 ], [ -99.245313572850165, 19.541560827579332, 2360.0 ], [ -99.245302130220821, 19.541570520468063, 2360.0 ], [ -99.245068951623423, 19.541499461647671, 2360.0 ], [ -99.244963602896192, 19.541431148621122, 2360.0 ], [ -99.244908692673818, 19.541404000205777, 2360.0 ], [ -99.244703865260064, 19.541305724064777, 2360.0 ], [ -99.244590642990119, 19.541181367317851, 2360.0 ], [ -99.244517312280848, 19.541058802182771, 2360.0 ], [ -99.244567218531046, 19.540947526007628, 2360.0 ], [ -99.245138439267407, 19.54067235672531, 2360.0 ], [ -99.246492883960386, 19.540637665603366, 2360.0 ], [ -99.246505122000997, 19.540971376895563, 2360.0 ], [ -99.246712951742424, 19.54140758896671, 2360.0 ], [ -99.246703056668608, 19.541571049992868, 2360.0 ] ] ] ] } },
{ "type": "Feature", "properties": { "Area": 10771.6, "Perimetro": 593.158, "Colonia": "Bosques de San Martin", "Status": "Liberacion de dictamen de Proteccion Civil/ Comun", "Origen": "Propiedad Privada", "Institucio": "IMEVIS", "Poligono": "La Cañada lote 07", "No_Lotes": "53", "Via_de_Reg": "Certificacion de vias publicas", "Status_Gen": "En proceso de regularización", "Area Has": 1.078 }, "geometry": { "type": "MultiPolygon", "coordinates": [ [ [ [ -99.248572298777148, 19.542714429091088, 0.0 ], [ -99.248467034351606, 19.542721629527172, 0.0 ], [ -99.248460586755002, 19.542695846023822, 0.0 ], [ -99.248322159987026, 19.542706772214512, 0.0 ], [ -99.24829233504525, 19.54258519108431, 0.0 ], [ -99.247917618968089, 19.542512351708506, 0.0 ], [ -99.247915268991605, 19.542493206400142, 0.0 ], [ -99.24774336984008, 19.542431565982977, 0.0 ], [ -99.247055492353482, 19.542325980761145, 0.0 ], [ -99.246463919144063, 19.54211593090541, 0.0 ], [ -99.246558934664179, 19.541936360644467, 0.0 ], [ -99.246607965555015, 19.541921823240191, 0.0 ], [ -99.246971420282819, 19.541910552638225, 0.0 ], [ -99.247223550054429, 19.541624796950174, 0.0 ], [ -99.247970595220153, 19.541679693932341, 0.0 ], [ -99.247878415691488, 19.542294106923674, 0.0 ], [ -99.248566155515874, 19.542551737620414, 0.0 ], [ -99.248572298777148, 19.542714429091088, 0.0 ] ] ] ] } },
{ "type": "Feature", "properties": { "Area": 77750.399999800022, "Perimetro": 1254.79, "Colonia": "Demetrio Vallejo", "Status": "En espera de Centencias", "Origen": "Propiedad Privada", "Institucio": "IMEVIS", "Poligono": "Demetrio Vallejo", "No_Lotes": "318", "Via_de_Reg": "Juicios de Usucapion", "Status_Gen": "En proceso de regularización", "Area Has": 7.781 }, "geometry": { "type": "MultiPolygon", "coordinates": [ [ [ [ -99.251222297733619, 19.545339384414557, 2440.0 ], [ -99.251139558522851, 19.5448734720974, 2440.0 ], [ -99.250098199116479, 19.545039672981449, 2440.0 ], [ -99.24964659275544, 19.541992584442738, 2440.0 ], [ -99.249827674230232, 19.542028771280503, 2440.0 ], [ -99.251517447025009, 19.542544498450784, 2440.0 ], [ -99.251583163591448, 19.542652488671163, 2440.0 ], [ -99.2531954616001, 19.545122552523637, 2440.0 ], [ -99.252076875543295, 19.545114672435364, 2440.0 ], [ -99.251222297733619, 19.545339384414557, 2440.0 ] ] ] ] } },
{ "type": "Feature", "properties": { "Area": 6608.3, "Perimetro": 342.993, "Colonia": "Demetrio Vallejo Ampliación", "Status": "En espera de Centencias", "Origen": "Propiedad Privada", "Institucio": "IMEVIS", "Poligono": "Demetrio Vallejo Ampliación", "No_Lotes": "8", "Via_de_Reg": "Juicios de Usucapion", "Status_Gen": "En proceso de regularización", "Area Has": 0.661 }, "geometry": { "type": "MultiPolygon", "coordinates": [ [ [ [ -99.250183118761868, 19.54561263115659, 0.0 ], [ -99.250081837142332, 19.545042284300767, 0.0 ], [ -99.251139558522851, 19.5448734720974, 0.0 ], [ -99.251224163278678, 19.545349889442392, 0.0 ], [ -99.250183118761868, 19.54561263115659, 0.0 ] ] ] ] } },
{ "type": "Feature", "properties": { "Area": 13210.1, "Perimetro": 510.039, "Colonia": "Adolfo López Mateos", "Status": "Asentamiento en minas", "Origen": "Propiedad Privada", "Institucio": "IMEVIS", "Poligono": "Calle Hermosillo Manzana 61", "No_Lotes": "60", "Via_de_Reg": "Subdivision", "Status_Gen": "En proceso de regularización", "Area Has": 1.322 }, "geometry": { "type": "MultiPolygon", "coordinates": [ [ [ [ -99.268459935180388, 19.590545928656823, 0.0 ], [ -99.269397562037952, 19.589184028920663, 0.0 ], [ -99.269746410651891, 19.589284735756014, 0.0 ], [ -99.269999845483369, 19.589494810691587, 0.0 ], [ -99.268996670387466, 19.590900934098549, 0.0 ], [ -99.268914464301801, 19.590858423374367, 0.0 ], [ -99.268459935180388, 19.590545928656823, 0.0 ] ] ] ] } },
{ "type": "Feature", "properties": { "Area": 9704.63, "Perimetro": 1288.34, "Colonia": "San Miguel Xochimanga", "Status": "Fuera de Expropiacion y Limite Municipal", "Origen": "Ejidal", "Institucio": "INSUS", "Poligono": "San Miguel Xochimanga", "No_Lotes": "54", "Via_de_Reg": "Expropiacion", "Status_Gen": "En proceso de regularización", "Area Has": 0.971 }, "geometry": { "type": "MultiPolygon", "coordinates": [ [ [ [ -99.214065562838073, 19.571540302755846, 0.0 ], [ -99.212349393663118, 19.566250456081036, 0.0 ], [ -99.212502488830594, 19.566239384408149, 0.0 ], [ -99.214271491103332, 19.571699064804502, 0.0 ], [ -99.214065562838073, 19.571540302755846, 0.0 ] ] ] ] } },
{ "type": "Feature", "properties": { "Area": 53104.7, "Perimetro": 1456.45, "Colonia": "Seis de Octubre", "Status": "Visto bueno de IMEVIS y Ayuntamiento", "Origen": "Propiedad Privada", "Institucio": "IMEVIS", "Poligono": "Seis de Octubre", "No_Lotes": "308", "Via_de_Reg": "Juicios Sumarios y Titulacion Notarial", "Status_Gen": "En proceso de regularización", "Area Has": 5.315 }, "geometry": { "type": "MultiPolygon", "coordinates": [ [ [ [ -99.259610745859149, 19.585365627854717, 0.0 ], [ -99.258892945992145, 19.582881362415119, 0.0 ], [ -99.25890451349693, 19.581179076691917, 0.0 ], [ -99.259095066281034, 19.581169308231416, 0.0 ], [ -99.259773272849117, 19.582203323707965, 0.0 ], [ -99.259358932108697, 19.582359098478374, 0.0 ], [ -99.259457590824667, 19.583764686076378, 0.0 ], [ -99.261218352457078, 19.583087656142936, 0.0 ], [ -99.26124382274179, 19.583071532350047, 0.0 ], [ -99.261456799295431, 19.583652517257693, 0.0 ], [ -99.261198585468463, 19.583761619452147, 0.0 ], [ -99.261049935925016, 19.584158668920146, 0.0 ], [ -99.26122959744913, 19.585107794075782, 0.0 ], [ -99.259610745859149, 19.585365627854717, 0.0 ] ] ] ] } },
{ "type": "Feature", "properties": { "Area": 21684.5, "Perimetro": 804.381, "Colonia": "U.A.M (Universidad Autónoma Metropolitana)", "Status": "Certificacion de Vias Publicas Existentes", "Origen": "Ejidal", "Institucio": "INSUS", "Poligono": "La Magueyera", "No_Lotes": "77", "Via_de_Reg": "Liberación de Zona Verde", "Status_Gen": "En proceso de regularización", "Area Has": 2.17 }, "geometry": { "type": "MultiPolygon", "coordinates": [ [ [ [ -99.253318477695458, 19.602982605905343, 0.0 ], [ -99.252105202690288, 19.603320973537933, 0.0 ], [ -99.252047148934295, 19.603170830094488, 0.0 ], [ -99.251820818565193, 19.602524465382771, 0.0 ], [ -99.25160107986089, 19.601975703454883, 0.0 ], [ -99.252682188756609, 19.601693555758647, 0.0 ], [ -99.253112640985336, 19.602886230960209, 0.0 ], [ -99.25392376366726, 19.602680098281109, 0.0 ], [ -99.25410796645339, 19.603348551648562, 0.0 ], [ -99.253318477695458, 19.602982605905343, 0.0 ] ] ] ] } },
{ "type": "Feature", "properties": { "Area": 33702.9, "Perimetro": 888.211, "Colonia": "Revolución", "Status": "Certificacion de Vias Publicas Existentes", "Origen": "Ejidal", "Institucio": "INSUS", "Poligono": "La Magueyera II", "No_Lotes": "132", "Via_de_Reg": "Liberación de Zona Verde", "Status_Gen": "En proceso de regularización", "Area Has": 3.373 }, "geometry": { "type": "MultiPolygon", "coordinates": [ [ [ [ -99.248657559053513, 19.600975969244647, 0.0 ], [ -99.250022670449809, 19.600584937951375, 0.0 ], [ -99.249672831237035, 19.599751508329433, 0.0 ], [ -99.250118858411042, 19.599569873581952, 0.0 ], [ -99.25098978585919, 19.601815329009153, 0.0 ], [ -99.250060040198619, 19.602000531944295, 0.0 ], [ -99.248956349543377, 19.601909642559679, 0.0 ], [ -99.248657559053513, 19.600975969244647, 0.0 ], [ -99.248657559053513, 19.600975969244647, 0.0 ] ] ] ] } },
{ "type": "Feature", "properties": { "Area": 19190.2, "Perimetro": 558.605, "Colonia": "El Capilín Ampliación", "Status": "Elaboracion de lotificación", "Origen": "Ejidal", "Institucio": "INSUS", "Poligono": "El Capulín Ampliación", "No_Lotes": "87", "Via_de_Reg": "Expropiación", "Status_Gen": "En proceso de regularización", "Area Has": 1.921 }, "geometry": { "type": "MultiPolygon", "coordinates": [ [ [ [ -99.246334791011549, 19.599092244168141, 0.0 ], [ -99.245822499249854, 19.597899890838569, 0.0 ], [ -99.246985692884593, 19.597259113425498, 0.0 ], [ -99.247425883510786, 19.598465565334141, 0.0 ], [ -99.246334791011549, 19.599092244168141, 0.0 ] ] ] ] } },
{ "type": "Feature", "properties": { "Area": 79812.399999800022, "Perimetro": 1191.83, "Colonia": "El Potrero", "Status": "En Jucio", "Origen": "Ejidal", "Institucio": "INSUS", "Poligono": "Palacio Municipal", "No_Lotes": "1", "Via_de_Reg": "Juicio", "Status_Gen": "En proceso de regularización", "Area Has": 7.988 }, "geometry": { "type": "MultiPolygon", "coordinates": [ [ [ [ -99.237680818502852, 19.544202978355937, 0.0 ], [ -99.234991497780825, 19.544299957987178, 0.0 ], [ -99.233679514194321, 19.542535027431729, 0.0 ], [ -99.234371294232446, 19.542390719531088, 0.0 ], [ -99.234247882532884, 19.541861098937986, 0.0 ], [ -99.234456159605926, 19.541874667565835, 0.0 ], [ -99.234549085021897, 19.541835679671312, 0.0 ], [ -99.235447458489759, 19.541950828449291, 0.0 ], [ -99.235468773977104, 19.542013601389097, 0.0 ], [ -99.236072204889581, 19.542053763273309, 0.0 ], [ -99.236073650058728, 19.542074447852485, 0.0 ], [ -99.2366521559197, 19.542130172853739, 0.0 ], [ -99.23709556054871, 19.542230623371236, 0.0 ], [ -99.237680818502852, 19.544202978355937, 0.0 ] ] ] ] } },
{ "type": "Feature", "properties": { "Area": 177517.0, "Perimetro": 2737.54, "Colonia": "Villa Jardín", "Status": "En Expropiación", "Origen": "Ejidal", "Institucio": "INSUS", "Poligono": "Villa Jardín", "No_Lotes": "SIN DATO", "Via_de_Reg": "Expropiación", "Status_Gen": "En proceso de regularización", "Area Has": 17.766 }, "geometry": { "type": "MultiPolygon", "coordinates": [ [ [ [ -99.221140091878397, 19.589679596734875, 0.0 ], [ -99.223269583485006, 19.588245593385313, 0.0 ], [ -99.224773116766485, 19.586515132981564, 0.0 ], [ -99.225001226392237, 19.586488384358514, 0.0 ], [ -99.225105544227617, 19.58603299723816, 0.0 ], [ -99.225844328874828, 19.585556392768932, 0.0 ], [ -99.226467438009621, 19.584466273115464, 0.0 ], [ -99.226665609928048, 19.58432349531423, 0.0 ], [ -99.226762570789688, 19.585079959069041, 0.0 ], [ -99.226501776227693, 19.585506822536605, 0.0 ], [ -99.226297257480724, 19.585519181460402, 0.0 ], [ -99.226303792641531, 19.585615993931363, 0.0 ], [ -99.226016178199501, 19.585622400468228, 0.0 ], [ -99.22537755559577, 19.586016521634019, 0.0 ], [ -99.225311928707953, 19.586382815493998, 0.0 ], [ -99.224570873731324, 19.58782786550994, 0.0 ], [ -99.22451134955655, 19.591074848072658, 0.0 ], [ -99.220544799331975, 19.592020351887268, 0.0 ], [ -99.218359229384248, 19.591444710523497, 0.0 ], [ -99.218438473540104, 19.591227456713447, 0.0 ], [ -99.221140091878397, 19.589679596734875, 0.0 ] ] ] ] } },
{ "type": "Feature", "properties": { "Area": 38415.1, "Perimetro": 891.993, "Colonia": "Emiliano Zapata Ampliación I", "Status": "En contratacion con INSUS", "Origen": "Ejidal", "Institucio": "INSUS", "Poligono": "Rancho Seco", "No_Lotes": "148", "Via_de_Reg": "Liberación de Equipamiento", "Status_Gen": "En proceso de regularización", "Area Has": 3.845 }, "geometry": { "type": "MultiPolygon", "coordinates": [ [ [ [ -99.261361292864521, 19.60038399577472, 0.0 ], [ -99.260758911043737, 19.598919096747938, 0.0 ], [ -99.262526240547245, 19.598306593793286, 0.0 ], [ -99.263208399561989, 19.599972127074032, 0.0 ], [ -99.262881270020316, 19.600328784036865, 0.0 ], [ -99.262603095819429, 19.600813214610373, 0.0 ], [ -99.262234019804964, 19.599929111975587, 0.0 ], [ -99.261361292864521, 19.60038399577472, 0.0 ] ] ] ] } },
{ "type": "Feature", "properties": { "Area": 36669.5, "Perimetro": 1127.64, "Colonia": "Lomas de Tepalcapa", "Status": "Certificacion de Vias Publicas", "Origen": "Sin Antecedente Registral", "Institucio": "IMEVIS", "Poligono": "Lomas de Tepalcapa (Vico, Hegel. 110 Lotes)", "No_Lotes": "35", "Via_de_Reg": "Inmatriculación", "Status_Gen": "En proceso de regularización", "Area Has": 3.67 }, "geometry": { "type": "MultiPolygon", "coordinates": [ [ [ [ -99.240751837900575, 19.587202528725641, 0.0 ], [ -99.238996978180438, 19.586943870437739, 0.0 ], [ -99.237472921360947, 19.583612177809581, 0.0 ], [ -99.240788228088206, 19.586977723953535, 0.0 ], [ -99.240790971090476, 19.587084318680521, 0.0 ], [ -99.24074963590347, 19.587077359461368, 0.0 ], [ -99.240751837900575, 19.587202528725641, 0.0 ] ] ] ] } },
{ "type": "Feature", "properties": { "Area": 11042.2, "Perimetro": 428.759, "Colonia": "Sagitario II", "Status": "En proceso de regularizacion", "Origen": "Propiedad Privada", "Institucio": "IMEVIS", "Poligono": "Pozo CAEM", "No_Lotes": "1", "Via_de_Reg": "SIN DATO", "Status_Gen": "En proceso de regularización", "Area Has": 1.105 }, "geometry": { "type": "MultiPolygon", "coordinates": [ [ [ [ -99.265899233703323, 19.59577041048459, 0.0 ], [ -99.265387014689537, 19.59516201585383, 0.0 ], [ -99.265681593750756, 19.594934680392278, 0.0 ], [ -99.266034367611127, 19.594666411240791, 0.0 ], [ -99.266215945939024, 19.59452633141791, 0.0 ], [ -99.26630760464279, 19.594456014524596, 0.0 ], [ -99.266420742241408, 19.594567264796876, 0.0 ], [ -99.266594334728524, 19.594737952461287, 0.0 ], [ -99.266791756872053, 19.594934703602902, 0.0 ], [ -99.266877751035338, 19.59502032860583, 0.0 ], [ -99.265899233703323, 19.59577041048459, 0.0 ] ] ] ] } },
{ "type": "Feature", "properties": { "Area": 78060.5, "Perimetro": 1523.19, "Colonia": "San Antonio Pocitos", "Status": "Pendiente de entrega de escrituras", "Origen": "Ejidal", "Institucio": "INSUS", "Poligono": "San Antonio Pocitos", "No_Lotes": "264", "Via_de_Reg": "Subdivision", "Status_Gen": "En proceso de regularización", "Area Has": 7.812 }, "geometry": { "type": "MultiPolygon", "coordinates": [ [ [ [ -99.223269583485006, 19.588245593385313, 0.0 ], [ -99.22288530473584, 19.588118146858346, 0.0 ], [ -99.22301329151324, 19.58790028250024, 0.0 ], [ -99.223029375348005, 19.587489240034081, 0.0 ], [ -99.222966998753918, 19.587260254053696, 0.0 ], [ -99.222893863960365, 19.586914120130064, 0.0 ], [ -99.222578765308299, 19.586731831688009, 0.0 ], [ -99.222326253134312, 19.586563812629088, 0.0 ], [ -99.222158039954593, 19.58642318719378, 0.0 ], [ -99.221940854164586, 19.58625966685484, 0.0 ], [ -99.221723628848423, 19.586068649582224, 0.0 ], [ -99.221707111803155, 19.585981395910657, 0.0 ], [ -99.221800469891335, 19.585992041294674, 0.0 ], [ -99.222165013309379, 19.585989200922672, 0.0 ], [ -99.222956631885609, 19.585765033998516, 0.0 ], [ -99.222998078335621, 19.585635863865555, 0.0 ], [ -99.222937866501312, 19.58532964374599, 0.0 ], [ -99.223633537617118, 19.584878307019764, 0.0 ], [ -99.223765650429186, 19.585144500158258, 0.0 ], [ -99.226484081339905, 19.58437489049917, 0.0 ], [ -99.226466710729383, 19.584555074767589, 0.0 ], [ -99.225811895286725, 19.585533122046808, 0.0 ], [ -99.22539278392442, 19.585661329462948, 0.0 ], [ -99.225083029669591, 19.585891125308994, 0.0 ], [ -99.225015332933225, 19.586385392685521, 0.0 ], [ -99.224745135204003, 19.586406273146885, 0.0 ], [ -99.223269583485006, 19.588245593385313, 0.0 ] ] ] ] } },
{ "type": "Feature", "properties": { "Area": 3971.11, "Perimetro": 365.435, "Colonia": "Lazaro Cardenas", "Status": "Integracion de expedientes", "Origen": "Sin Antecedente Registral", "Institucio": "IMEVIS", "Poligono": "Lazaro Cardenas", "No_Lotes": "32", "Via_de_Reg": "Inmatriculación", "Status_Gen": "En proceso de regularización", "Area Has": 0.397 }, "geometry": { "type": "MultiPolygon", "coordinates": [ [ [ [ -99.233088839505811, 19.554912809788135, 0.0 ], [ -99.231981096751824, 19.553983009383373, 0.0 ], [ -99.232050193750666, 19.553960937400525, 0.0 ], [ -99.232062485766804, 19.554031139346776, 0.0 ], [ -99.232159207500516, 19.554026112035181, 0.0 ], [ -99.232161799106436, 19.554103400453052, 0.0 ], [ -99.232629850939816, 19.554012595535337, 0.0 ], [ -99.232806916589738, 19.553983306275473, 0.0 ], [ -99.233088839505811, 19.554912809788135, 0.0 ] ] ] ] } },
{ "type": "Feature", "properties": { "Area": 12981.4, "Perimetro": 793.519, "Colonia": "Lazaro Cardenas", "Status": "Integracion de expedientes", "Origen": "Ejidal", "Institucio": "INSUS", "Poligono": "Lazaro Cardenas EQUIPAMIENTO", "No_Lotes": "51", "Via_de_Reg": "Programa Programa de Mejoramiento Urbano (PMU)", "Status_Gen": "En proceso de regularización", "Area Has": 1.299 }, "geometry": { "type": "MultiPolygon", "coordinates": [ [ [ [ -99.231785325236601, 19.554178366620643, 0.0 ], [ -99.23209987628627, 19.554082709769613, 0.0 ], [ -99.233088839505811, 19.554912809788135, 0.0 ], [ -99.232806916589738, 19.553983306275473, 0.0 ], [ -99.232898321245557, 19.553976235753254, 0.0 ], [ -99.232928776035322, 19.55410626997519, 0.0 ], [ -99.232879359288674, 19.554120680295107, 0.0 ], [ -99.233066405035331, 19.554541912524915, 0.0 ], [ -99.233040565122934, 19.554551508608576, 0.0 ], [ -99.233120333147212, 19.55477019078424, 0.0 ], [ -99.233312605925022, 19.554732879075676, 0.0 ], [ -99.233375839806683, 19.554855339585107, 0.0 ], [ -99.233362915553442, 19.554856553215441, 0.0 ], [ -99.233381370392152, 19.555179004269462, 0.0 ], [ -99.233070874312077, 19.555355387298327, 0.0 ], [ -99.233030158826494, 19.555106769041846, 0.0 ], [ -99.232342559058395, 19.555450055246538, 0.0 ], [ -99.232182818974479, 19.555220718127366, 0.0 ], [ -99.232307828288896, 19.555151695397484, 0.0 ], [ -99.232115714843815, 19.554861188309673, 0.0 ], [ -99.231976565817376, 19.554918753459425, 0.0 ], [ -99.231861642339268, 19.554632570577443, 0.0 ], [ -99.231855179910923, 19.554521991577346, 0.0 ], [ -99.231785325236601, 19.554178366620643, 0.0 ] ] ] ] } },
{ "type": "Feature", "properties": { "Area": 21272.5, "Perimetro": 657.555, "Colonia": "Las Águilas", "Status": "Zona de Riesgo", "Origen": "Ejidal", "Institucio": "INSUS", "Poligono": "Las Aguilas (Primavera, cotorro, etc)", "No_Lotes": "114", "Via_de_Reg": "SIN DATO", "Status_Gen": "Irregular", "Area Has": 2.129 }, "geometry": { "type": "MultiPolygon", "coordinates": [ [ [ [ -99.253896566721295, 19.584881231157034, 0.0 ], [ -99.253240348547024, 19.585295045639789, 0.0 ], [ -99.252355788493034, 19.584152477018741, 0.0 ], [ -99.252723315645028, 19.583940047265784, 0.0 ], [ -99.252794557218522, 19.58405076776085, 0.0 ], [ -99.252921134462454, 19.583982906821959, 0.0 ], [ -99.253015497899199, 19.584141017223864, 0.0 ], [ -99.253109772542999, 19.584087604895991, 0.0 ], [ -99.253806858829648, 19.583686896487858, 0.0 ], [ -99.253930999363504, 19.58382913094972, 0.0 ], [ -99.254069019146925, 19.584038068125516, 0.0 ], [ -99.254386945469079, 19.584519349007735, 0.0 ], [ -99.254538775784411, 19.584696668255827, 0.0 ], [ -99.254046675298952, 19.585057980786384, 0.0 ], [ -99.253896566721295, 19.584881231157034, 0.0 ] ] ] ] } },
{ "type": "Feature", "properties": { "Area": 10747.4, "Perimetro": 420.537, "Colonia": "Las Águilas", "Status": "Zona de Riesgo", "Origen": "Ejidal", "Institucio": "INSUS", "Poligono": "Las Aguilas (Primavera, cotorro, etc)", "No_Lotes": "37", "Via_de_Reg": "SIN DATO", "Status_Gen": "Irregular", "Area Has": 1.076 }, "geometry": { "type": "MultiPolygon", "coordinates": [ [ [ [ -99.251352349935203, 19.582440992225958, 0.0 ], [ -99.251397136346924, 19.582805642408459, 0.0 ], [ -99.251352127436135, 19.583192878809744, 0.0 ], [ -99.25042590856728, 19.583111628701168, 0.0 ], [ -99.250417350492697, 19.583127900160378, 0.0 ], [ -99.250259265340944, 19.583114391242095, 0.0 ], [ -99.250239305376056, 19.582202637725892, 0.0 ], [ -99.251352349935203, 19.582440992225958, 0.0 ] ] ] ] } },
{ "type": "Feature", "properties": { "Area": 80042.8, "Perimetro": 1139.06, "Colonia": "Tierra de Enmedio", "Status": "En busca de dueños registrales", "Origen": "Propiedad Privada", "Institucio": "IMEVIS", "Poligono": "Tierra de Enmedio", "No_Lotes": "343", "Via_de_Reg": "SIN DATO", "Status_Gen": "Irregular", "Area Has": 8.011 }, "geometry": { "type": "MultiPolygon", "coordinates": [ [ [ [ -99.275960709074084, 19.5950836418533, 0.0 ], [ -99.275718659736867, 19.594939246153622, 0.0 ], [ -99.275391341159818, 19.594286128130374, 0.0 ], [ -99.274651863014398, 19.593200373314204, 0.0 ], [ -99.275231116195272, 19.592842262208382, 0.0 ], [ -99.275616439094421, 19.59251221252001, 0.0 ], [ -99.275945266292766, 19.592184995648545, 0.0 ], [ -99.276324350985689, 19.591910967841379, 0.0 ], [ -99.276962408162404, 19.591367066558171, 0.0 ], [ -99.27705566949443, 19.591481496643162, 0.0 ], [ -99.277100423018496, 19.591582666814531, 0.0 ], [ -99.277516130728245, 19.592018353038597, 0.0 ], [ -99.277536967405197, 19.592067608465722, 0.0 ], [ -99.27764451234998, 19.592194381694263, 0.0 ], [ -99.277636927712038, 19.592199858248446, 0.0 ], [ -99.277707816512944, 19.592287844225805, 0.0 ], [ -99.277764670507949, 19.592293863670946, 0.0 ], [ -99.27819506426502, 19.593100270131185, 0.0 ], [ -99.278260586803398, 19.593228744994626, 0.0 ], [ -99.276724539228169, 19.594542675422705, 0.0 ], [ -99.275960709074084, 19.5950836418533, 0.0 ] ] ] ] } },
{ "type": "Feature", "properties": { "Area": 44262.1, "Perimetro": 1083.0, "Colonia": "Emiliano Zapata Ampliación", "Status": "Poligono Ejidal", "Origen": "Ejidal", "Institucio": "INSUS", "Poligono": "La Lumbrera", "No_Lotes": "205", "Via_de_Reg": "SIN DATO", "Status_Gen": "Irregular", "Area Has": 4.43 }, "geometry": { "type": "MultiPolygon", "coordinates": [ [ [ [ -99.26521028105148, 19.604760643536753, 0.0 ], [ -99.266249113781868, 19.604521888425072, 0.0 ], [ -99.266373807750469, 19.604419742658941, 0.0 ], [ -99.266596867827673, 19.604330573470772, 0.0 ], [ -99.266595920540311, 19.603755547824061, 0.0 ], [ -99.266567334061349, 19.603580951113507, 0.0 ], [ -99.266612239939604, 19.602932468575109, 0.0 ], [ -99.267885573451451, 19.602830269589695, 0.0 ], [ -99.267064251982831, 19.604941313286414, 0.0 ], [ -99.267046792181659, 19.604936025400704, 0.0 ], [ -99.266928271318477, 19.605296515675644, 0.0 ], [ -99.266581623629918, 19.606164834909155, 0.0 ], [ -99.26656621208366, 19.606204077125348, 0.0 ], [ -99.265714922519123, 19.606000189264847, 0.0 ], [ -99.26521028105148, 19.604760643536753, 0.0 ] ] ] ] } },
{ "type": "Feature", "properties": { "Area": 52920.8, "Perimetro": 978.783, "Colonia": "La Nueva Era", "Status": "Para expropiación", "Origen": "Ejidal", "Institucio": "INSUS", "Poligono": "La Nueva Era", "No_Lotes": "126", "Via_de_Reg": "SIN DATO", "Status_Gen": "Irregular", "Area Has": 5.296 }, "geometry": { "type": "MultiPolygon", "coordinates": [ [ [ [ -99.245462534625617, 19.594054593178051, 0.0 ], [ -99.244899590915381, 19.595434719870454, 0.0 ], [ -99.24298569968721, 19.596180397904128, 0.0 ], [ -99.242372291881367, 19.594743277948286, 0.0 ], [ -99.243657434962941, 19.594244874294478, 0.0 ], [ -99.243699826038792, 19.593475688321824, 0.0 ], [ -99.245462534625617, 19.594054593178051, 0.0 ] ] ] ] } },
{ "type": "Feature", "properties": { "Area": 22394.1, "Perimetro": 601.943, "Colonia": "Emiliano Zapata", "Status": "En proceso de expropiación", "Origen": "Ejidal", "Institucio": "INSUS", "Poligono": "Campo de Futbol", "No_Lotes": "2", "Via_de_Reg": "SIN DATO", "Status_Gen": "Irregular", "Area Has": 2.241 }, "geometry": { "type": "MultiPolygon", "coordinates": [ [ [ [ -99.253890217074414, 19.608135653986817, 0.0 ], [ -99.253432307452258, 19.607035157308129, 0.0 ], [ -99.255060311853498, 19.606706602825337, 0.0 ], [ -99.255147589140492, 19.607350345385751, 0.0 ], [ -99.255096028779249, 19.608231567359091, 0.0 ], [ -99.255039291898044, 19.60822554357663, 0.0 ], [ -99.254887415420924, 19.608206590999302, 0.0 ], [ -99.254694383349843, 19.608189585214802, 0.0 ], [ -99.254245872451293, 19.608141427859941, 0.0 ], [ -99.253890217074414, 19.608135653986817, 0.0 ] ] ] ] } },
{ "type": "Feature", "properties": { "Area": 24413.8, "Perimetro": 634.39, "Colonia": "Cinco de Mayo", "Status": "Zona de Riesgo", "Origen": "Ejidal", "Institucio": "INSUS", "Poligono": "Cinco de Mayo Ampliación", "No_Lotes": "SIN DATO", "Via_de_Reg": "SIN DATO", "Status_Gen": "Irregular", "Area Has": 2.443 }, "geometry": { "type": "MultiPolygon", "coordinates": [ [ [ [ -99.24842538482136, 19.587393788231488, 0.0 ], [ -99.249288880598669, 19.586523896867369, 0.0 ], [ -99.250707269180964, 19.58710462313103, 0.0 ], [ -99.249509084555413, 19.588339821901918, 0.0 ], [ -99.24842538482136, 19.587393788231488, 0.0 ] ] ] ] } },
{ "type": "Feature", "properties": { "Area": 25037.9, "Perimetro": 636.549, "Colonia": "Lomas de Las Torres", "Status": "Zons Verde", "Origen": "Ejidal", "Institucio": "INSUS", "Poligono": "Lomas de Las Torres", "No_Lotes": "SIN DATO", "Via_de_Reg": "SIN DATO", "Status_Gen": "Irregular", "Area Has": 2.506 }, "geometry": { "type": "MultiPolygon", "coordinates": [ [ [ [ -99.258358131660316, 19.597138868360425, 0.0 ], [ -99.257857061718269, 19.595969485018237, 0.0 ], [ -99.259392414868046, 19.595297854769793, 0.0 ], [ -99.259881426369574, 19.596538293919604, 0.0 ], [ -99.258358131660316, 19.597138868360425, 0.0 ] ] ] ] } },
{ "type": "Feature", "properties": { "Area": 96710.2, "Perimetro": 1667.99, "Colonia": "Emiliano Zapata Ampliación II", "Status": "Pendiente para expropiar", "Origen": "Ejidal", "Institucio": "INSUS", "Poligono": "Calles: Cinco de Mayo, Unidad Xochimilco, Guerrero", "No_Lotes": "353", "Via_de_Reg": "SIN DATO", "Status_Gen": "Irregular", "Area Has": 9.679 }, "geometry": { "type": "MultiPolygon", "coordinates": [ [ [ [ -99.253955074563024, 19.602797443706034, 0.0 ], [ -99.255742701978008, 19.602038853261252, 0.0 ], [ -99.255329644898197, 19.601074386750184, 0.0 ], [ -99.257098456859055, 19.600338849164345, 0.0 ], [ -99.257353907705195, 19.600976084596532, 0.0 ], [ -99.257731826067982, 19.601719152841177, 0.0 ], [ -99.256936999204981, 19.602005557180195, 0.0 ], [ -99.255923442869232, 19.60239931959125, 0.0 ], [ -99.256411565101502, 19.603551027193575, 0.0 ], [ -99.256553328181042, 19.603951618462261, 0.0 ], [ -99.256222101260633, 19.604951598824012, 0.0 ], [ -99.256046418286374, 19.604818790267387, 0.0 ], [ -99.254711018251982, 19.605382479383906, 0.0 ], [ -99.254491429361366, 19.604477667601575, 0.0 ], [ -99.254166247145918, 19.603588861120539, 0.0 ], [ -99.253955074563024, 19.602797443706034, 0.0 ] ] ] ] } },
{ "type": "Feature", "properties": { "Area": 395038.0, "Perimetro": 4494.65, "Colonia": "Rancho Blanco", "Status": "En Zona de Comuneros", "Origen": "Propiedad Privada", "Institucio": "IMEVIS", "Poligono": "Rancho Blanco \"B\"", "No_Lotes": "SIN DATO", "Via_de_Reg": "SIN DATO", "Status_Gen": "Irregular", "Area Has": 39.534 }, "geometry": { "type": "MultiPolygon", "coordinates": [ [ [ [ -99.310799883283522, 19.548239174166131, 0.0 ], [ -99.309324096356704, 19.542403475190476, 0.0 ], [ -99.309512822324834, 19.542464290381677, 0.0 ], [ -99.309613739838795, 19.542536825868289, 0.0 ], [ -99.309799136105738, 19.5426433756693, 0.0 ], [ -99.309814477610587, 19.543356927851875, 0.0 ], [ -99.310148992773151, 19.543711708427505, 0.0 ], [ -99.310037461042882, 19.543899116235565, 0.0 ], [ -99.309975666246856, 19.544069211078021, 0.0 ], [ -99.310109323295563, 19.54422413333516, 0.0 ], [ -99.310219132850648, 19.544300182977217, 0.0 ], [ -99.310335401538296, 19.544340221135847, 0.0 ], [ -99.310396808523691, 19.544393999714597, 0.0 ], [ -99.310475884122127, 19.544566937263781, 0.0 ], [ -99.311703733447416, 19.545613726152801, 0.0 ], [ -99.311822777964707, 19.545439089804287, 0.0 ], [ -99.311821271131848, 19.545200888567248, 0.0 ], [ -99.31168662459136, 19.545137085101583, 0.0 ], [ -99.31158168393948, 19.544721153383946, 0.0 ], [ -99.311531863410991, 19.544490794692727, 0.0 ], [ -99.3115061125484, 19.544285246349713, 0.0 ], [ -99.311533695880613, 19.544054754163366, 0.0 ], [ -99.311565798457949, 19.543894291267577, 0.0 ], [ -99.311688181560442, 19.543539376173985, 0.0 ], [ -99.311781408081742, 19.54324099283884, 0.0 ], [ -99.311867298660232, 19.542944881374471, 0.0 ], [ -99.312005746281713, 19.542476327358287, 0.0 ], [ -99.311227271311765, 19.540855071825231, 0.0 ], [ -99.309440035444155, 19.541515568114541, 0.0 ], [ -99.309311190601321, 19.541202210396008, 0.0 ], [ -99.311034099837443, 19.540452766355269, 0.0 ], [ -99.311191032383306, 19.540446873526587, 0.0 ], [ -99.311411484492567, 19.540910729189175, 0.0 ], [ -99.31216531057558, 19.540583305094334, 0.0 ], [ -99.31220181046497, 19.54037163989825, 0.0 ], [ -99.312271402662375, 19.540388639493433, 0.0 ], [ -99.311851559004793, 19.539544564858907, 0.0 ], [ -99.311916630180534, 19.53950299463429, 0.0 ], [ -99.313095706806465, 19.541878900763205, 0.0 ], [ -99.314278925950973, 19.544443579018985, 0.0 ], [ -99.316533801131754, 19.550349386398501, 0.0 ], [ -99.316526740106184, 19.550350275836557, 0.0 ], [ -99.31611959315282, 19.550350988916424, 0.0 ], [ -99.315804027619549, 19.550308846091436, 0.0 ], [ -99.315584366830365, 19.550510600638617, 0.0 ], [ -99.315578859258324, 19.550511934720983, 0.0 ], [ -99.315570602845497, 19.550523242589598, 0.0 ], [ -99.314904868127996, 19.551134703321623, 0.0 ], [ -99.310799883283522, 19.548239174166131, 0.0 ] ] ] ] } },
{ "type": "Feature", "properties": { "Area": 854715.0, "Perimetro": 8517.21, "Colonia": "Rancho Blanco", "Status": "En Zona de Comuneros", "Origen": "Propiedad Privada", "Institucio": "IMEVIS", "Poligono": "Rancho Blanco \"A\"", "No_Lotes": "SIN DATO", "Via_de_Reg": "SIN DATO", "Status_Gen": "Irregular", "Area Has": 85.538 }, "geometry": { "type": "MultiPolygon", "coordinates": [ [ [ [ -99.318436462812599, 19.541107724759662, 0.0 ], [ -99.318875343502455, 19.540451009632093, 0.0 ], [ -99.318578982095772, 19.540231607539567, 0.0 ], [ -99.318950973250821, 19.539840071039077, 0.0 ], [ -99.319167806250562, 19.539563628670884, 0.0 ], [ -99.319334963236457, 19.539567505548586, 0.0 ], [ -99.319927386482888, 19.539781170377079, 0.0 ], [ -99.320172632905283, 19.539842082490384, 0.0 ], [ -99.320623695564265, 19.540065266321019, 0.0 ], [ -99.32089956415561, 19.540248308986797, 0.0 ], [ -99.320998571580205, 19.540272492319087, 0.0 ], [ -99.320748018560423, 19.541194446788317, 0.0 ], [ -99.3208290831939, 19.541269947821466, 0.0 ], [ -99.321019154872602, 19.541446974140872, 0.0 ], [ -99.321313020083508, 19.541720669066837, 0.0 ], [ -99.321421029643489, 19.54190996416628, 0.0 ], [ -99.321590019112733, 19.542206130229648, 0.0 ], [ -99.322022436669528, 19.541893689820963, 0.0 ], [ -99.322328977600236, 19.541310700585388, 0.0 ], [ -99.322474537967508, 19.541337123037934, 0.0 ], [ -99.322650639265959, 19.54104106976067, 0.0 ], [ -99.322797047646006, 19.54062231003428, 0.0 ], [ -99.322661242945202, 19.54044957322067, 0.0 ], [ -99.322566643837149, 19.540265602821549, 0.0 ], [ -99.322643280400811, 19.540203324467527, 0.0 ], [ -99.322925303256156, 19.539862442056357, 0.0 ], [ -99.322939938332155, 19.539707229909173, 0.0 ], [ -99.323595578355423, 19.539858357252502, 0.0 ], [ -99.323885209796742, 19.538927899546195, 0.0 ], [ -99.324552537284944, 19.539059776638947, 0.0 ], [ -99.32380031406278, 19.541544052744104, 0.0 ], [ -99.323619644356711, 19.541854706480283, 0.0 ], [ -99.323656411416735, 19.541979351271983, 0.0 ], [ -99.323651546689376, 19.541988056299914, 0.0 ], [ -99.323643160625465, 19.542002721207705, 0.0 ], [ -99.323637306726837, 19.542017452181192, 0.0 ], [ -99.323632578762187, 19.54203662905477, 0.0 ], [ -99.323627844112934, 19.542052452351882, 0.0 ], [ -99.323620735383628, 19.542072798420222, 0.0 ], [ -99.323612360638933, 19.542093146755835, 0.0 ], [ -99.32360174956942, 19.542112404767657, 0.0 ], [ -99.323585112996014, 19.542135027158828, 0.0 ], [ -99.323555294976629, 19.542157673154517, 0.0 ], [ -99.323532759324266, 19.542172363395995, 0.0 ], [ -99.323518490137644, 19.542187109434614, 0.0 ], [ -99.323510097370473, 19.54219842075992, 0.0 ], [ -99.323495843861949, 19.542221038875844, 0.0 ], [ -99.323479198261623, 19.542239142754571, 0.0 ], [ -99.3234519212386, 19.542266302702835, 0.0 ], [ -99.323422103176469, 19.54228894867687, 0.0 ], [ -99.323393533123806, 19.542302555374324, 0.0 ], [ -99.323369729241946, 19.542316153536916, 0.0 ], [ -99.323343542268034, 19.54232975596133, 0.0 ], [ -99.323314978878628, 19.542346716222806, 0.0 ], [ -99.323285294053136, 19.542361489828881, 0.0 ], [ -99.32325545796013, 19.542375098770112, 0.0 ], [ -99.323229270966962, 19.542388701178162, 0.0 ], [ -99.323210224243013, 19.542397772290183, 0.0 ], [ -99.32318641133854, 19.542406851926057, 0.0 ], [ -99.323160206349669, 19.542411417318515, 0.0 ], [ -99.323136384448631, 19.542415978444982, 0.0 ], [ -99.323109071374532, 19.542425064330796, 0.0 ], [ -99.323074480242539, 19.542444294593885, 0.0 ], [ -99.323045912450254, 19.542459066163481, 0.0 ], [ -99.323026872378847, 19.542471490832789, 0.0 ], [ -99.323007832444929, 19.542483986101622, 0.0 ], [ -99.322988776709565, 19.542488538687714, 0.0 ], [ -99.322974491647713, 19.542495342003129, 0.0 ], [ -99.322959087194008, 19.542500982387708, 0.0 ], [ -99.322944795460202, 19.542504432124439, 0.0 ], [ -99.322925744213492, 19.542511243955346, 0.0 ], [ -99.322907805546322, 19.542515794536346, 0.0 ], [ -99.322891126086319, 19.542516918674949, 0.0 ], [ -99.322876832033288, 19.542519203479824, 0.0 ], [ -99.322850629333061, 19.542524933754247, 0.0 ], [ -99.322829188251347, 19.542528360956307, 0.0 ], [ -99.322836138306158, 19.542867093445107, 0.0 ], [ -99.322319351605856, 19.54320253055738, 0.0 ], [ -99.322325329539908, 19.543212686559599, 0.0 ], [ -99.322334902308754, 19.543233002815235, 0.0 ], [ -99.322344470594999, 19.5432510598189, 0.0 ], [ -99.322351653468715, 19.543267956147535, 0.0 ], [ -99.322363611659256, 19.543289433075888, 0.0 ], [ -99.322370783393282, 19.543300716576034, 0.0 ], [ -99.322379239093692, 19.543321034822242, 0.0 ], [ -99.322393573596315, 19.54333908331812, 0.0 ], [ -99.32241619909496, 19.543369507642282, 0.0 ], [ -99.322432925682335, 19.543392070384499, 0.0 ], [ -99.322443757839977, 19.543409030797996, 0.0 ], [ -99.322452046665049, 19.543420312300899, 0.0 ], [ -99.322459222897763, 19.543433855048463, 0.0 ], [ -99.322466396818186, 19.543446232869307, 0.0 ], [ -99.322473577540137, 19.543462034867577, 0.0 ], [ -99.322482033262062, 19.54348235310832, 0.0 ], [ -99.322490337868615, 19.543501577289611, 0.0 ], [ -99.322496406001832, 19.543519640532089, 0.0 ], [ -99.322508366404008, 19.5435422117746, 0.0 ], [ -99.322520342445841, 19.543572655094806, 0.0 ], [ -99.322531039143826, 19.543596393522105, 0.0 ], [ -99.322545387151649, 19.54362121975851, 0.0 ], [ -99.322551450807651, 19.543637023747536, 0.0 ], [ -99.322564534970212, 19.543662946567405, 0.0 ], [ -99.322580144526952, 19.543685511289077, 0.0 ], [ -99.322588444667275, 19.543702476213905, 0.0 ], [ -99.322596900416499, 19.543722794448321, 0.0 ], [ -99.322607590332495, 19.543743108692738, 0.0 ], [ -99.322616061727416, 19.543771299004511, 0.0 ], [ -99.322625650348314, 19.543799557922497, 0.0 ], [ -99.322635245636306, 19.543831170415785, 0.0 ], [ -99.32263645699318, 19.543878612695494, 0.0 ], [ -99.322643693798085, 19.543922620024439, 0.0 ], [ -99.322647399125444, 19.543950889447576, 0.0 ], [ -99.32265221690831, 19.543976827022714, 0.0 ], [ -99.32265574635673, 19.543991541204651, 0.0 ], [ -99.322660548498746, 19.544009606701263, 0.0 ], [ -99.322667738244675, 19.544029927192444, 0.0 ], [ -99.322679691904213, 19.544049074243979, 0.0 ], [ -99.32268688396951, 19.544070559660575, 0.0 ], [ -99.322691692782385, 19.544091978732002, 0.0 ], [ -99.3226988938316, 19.544117982650249, 0.0 ], [ -99.322710860972464, 19.544143907452565, 0.0 ], [ -99.322719312270294, 19.544161966428678, 0.0 ], [ -99.322726495364918, 19.544178933341207, 0.0 ], [ -99.322734804387508, 19.544200346158298, 0.0 ], [ -99.322739604369616, 19.544217317327426, 0.0 ], [ -99.322744406528003, 19.544235382821132, 0.0 ], [ -99.322750474718077, 19.544253446052849, 0.0 ], [ -99.322761169180211, 19.544276019537303, 0.0 ], [ -99.322768345477456, 19.544289562270389, 0.0 ], [ -99.322773136342988, 19.54430194433478, 0.0 ], [ -99.322774436128654, 19.544318921756329, 0.0 ], [ -99.322773208203074, 19.544338092351222, 0.0 ], [ -99.322768482388554, 19.544358434125982, 0.0 ], [ -99.322894257918804, 19.544762703014428, 0.0 ], [ -99.32287634411621, 19.544968883061511, 0.0 ], [ -99.322918533291372, 19.545223309070057, 0.0 ], [ -99.32287430237497, 19.545881332845415, 0.0 ], [ -99.322854912502805, 19.546080672627863, 0.0 ], [ -99.322256848492671, 19.546022807695795, 0.0 ], [ -99.32160542463329, 19.545959777694783, 0.0 ], [ -99.321238762641627, 19.546185599036075, 0.0 ], [ -99.320975653410713, 19.546585007381669, 0.0 ], [ -99.320750598206828, 19.546926646628499, 0.0 ], [ -99.32071775492544, 19.547323340122436, 0.0 ], [ -99.32137005614365, 19.547282477076504, 0.0 ], [ -99.321506285091942, 19.546785573625865, 0.0 ], [ -99.321822709309629, 19.546634897542667, 0.0 ], [ -99.322355269037743, 19.546579361539536, 0.0 ], [ -99.32275109860602, 19.546578654741236, 0.0 ], [ -99.322806482986664, 19.546578555777032, 0.0 ], [ -99.322799938672517, 19.546645834854615, 0.0 ], [ -99.322846327321045, 19.547020296777163, 0.0 ], [ -99.32315534223396, 19.547343578498626, 0.0 ], [ -99.323227389632564, 19.547372544367157, 0.0 ], [ -99.323422394130048, 19.547319370736197, 0.0 ], [ -99.324458694571675, 19.547504898505448, 0.0 ], [ -99.324831088240742, 19.547618446849249, 0.0 ], [ -99.324848426583628, 19.54765810566958, 0.0 ], [ -99.324859041119538, 19.547699839763197, 0.0 ], [ -99.324862673031973, 19.547742631539329, 0.0 ], [ -99.324859233759469, 19.547785437617247, 0.0 ], [ -99.324848807155433, 19.547827214266803, 0.0 ], [ -99.324831647444185, 19.547866942857134, 0.0 ], [ -99.32480817302266, 19.547903654694196, 0.0 ], [ -99.324778956259195, 19.547936454640151, 0.0 ], [ -99.324744709537867, 19.547964542939553, 0.0 ], [ -99.324706267888672, 19.547987234719816, 0.0 ], [ -99.324664568627128, 19.548003976690609, 0.0 ], [ -99.324620628499758, 19.548014360634614, 0.0 ], [ -99.324575518892615, 19.548018133361527, 0.0 ], [ -99.324530339707465, 19.548015202881246, 0.0 ], [ -99.32406926857044, 19.547932560941174, 0.0 ], [ -99.323604421827341, 19.547952542357379, 0.0 ], [ -99.322773809497761, 19.548483579756653, 0.0 ], [ -99.32205475452119, 19.549621865927268, 0.0 ], [ -99.321458458394616, 19.549235573499949, 0.0 ], [ -99.321166617869693, 19.54930014496389, 0.0 ], [ -99.320960971569406, 19.549709279341993, 0.0 ], [ -99.320955327174957, 19.549953061546947, 0.0 ], [ -99.320925004426087, 19.550109826007215, 0.0 ], [ -99.320464836594013, 19.550083223316122, 0.0 ], [ -99.320044133384926, 19.549884873719439, 0.0 ], [ -99.319729290851186, 19.550184262755838, 0.0 ], [ -99.319544231603032, 19.55062078616022, 0.0 ], [ -99.319605677945276, 19.550699569415126, 0.0 ], [ -99.318971163551296, 19.550343041639668, 0.0 ], [ -99.319115947906511, 19.550182514736601, 0.0 ], [ -99.318255015473198, 19.549404782668397, 0.0 ], [ -99.318614059336227, 19.548958007799843, 0.0 ], [ -99.318342283219764, 19.548727542914015, 0.0 ], [ -99.317180053694798, 19.549895699887124, 0.0 ], [ -99.31718040511835, 19.550075538442545, 0.0 ], [ -99.317196972201288, 19.550275017128246, 0.0 ], [ -99.316971446138183, 19.550294258135825, 0.0 ], [ -99.316823987573528, 19.550312832980627, 0.0 ], [ -99.315636618560987, 19.547203035669686, 0.0 ], [ -99.315642353309087, 19.547198066234895, 0.0 ], [ -99.315660341377324, 19.547183772525358, 0.0 ], [ -99.31567350353636, 19.547173618156876, 0.0 ], [ -99.315697291210569, 19.547150983989077, 0.0 ], [ -99.316187894618906, 19.546878569636174, 0.0 ], [ -99.316305458358599, 19.546813290405108, 0.0 ], [ -99.31631442469056, 19.546809303349782, 0.0 ], [ -99.316323391022081, 19.546805316294048, 0.0 ], [ -99.316341179276506, 19.546799672295464, 0.0 ], [ -99.316350020804222, 19.546795993125549, 0.0 ], [ -99.315811672886639, 19.545622247355368, 0.0 ], [ -99.315488098777664, 19.545911684834802, 0.0 ], [ -99.315677093169882, 19.546223861671898, 0.0 ], [ -99.315342903572841, 19.546433756679484, 0.0 ], [ -99.314544663016036, 19.544343017064726, 0.0 ], [ -99.31335613978473, 19.541766850967377, 0.0 ], [ -99.312232969017629, 19.539503607379366, 0.0 ], [ -99.312304248754359, 19.539501125251189, 0.0 ], [ -99.313157520173021, 19.541216388154194, 0.0 ], [ -99.313215633860736, 19.541218778439109, 0.0 ], [ -99.313260958112807, 19.540741786449928, 0.0 ], [ -99.313260025258245, 19.540258176947845, 0.0 ], [ -99.313259666828955, 19.540072356574086, 0.0 ], [ -99.313169021858769, 19.539674911538143, 0.0 ], [ -99.312995158095248, 19.539341524995706, 0.0 ], [ -99.312990346211407, 19.539340854522614, 0.0 ], [ -99.313028955427114, 19.539120330855855, 0.0 ], [ -99.312508659365747, 19.539116374024641, 0.0 ], [ -99.312538104602581, 19.538885416861, 0.0 ], [ -99.311954052281706, 19.538858107511782, 0.0 ], [ -99.311914692932206, 19.538862252565636, 0.0 ], [ -99.311913328184815, 19.538859502465016, 0.0 ], [ -99.312029670562879, 19.538368209849342, 0.0 ], [ -99.31164520229143, 19.538319200282739, 0.0 ], [ -99.31163618665235, 19.538301032740332, 0.0 ], [ -99.314443692576148, 19.538621110049998, 0.0 ], [ -99.314640712126291, 19.538681270827187, 0.0 ], [ -99.314288915725072, 19.539155294280263, 0.0 ], [ -99.314102179875462, 19.539918233581616, 0.0 ], [ -99.314017647612516, 19.540016206895743, 0.0 ], [ -99.31386994016566, 19.540330457485727, 0.0 ], [ -99.313804837523705, 19.540541935295394, 0.0 ], [ -99.314765898505939, 19.540703226941019, 0.0 ], [ -99.31636762855517, 19.54113664113471, 0.0 ], [ -99.318650344806542, 19.542878923427661, 0.0 ], [ -99.318754096411652, 19.542686534479799, 0.0 ], [ -99.319076452627485, 19.542233541145229, 0.0 ], [ -99.319236628018331, 19.541914957291418, 0.0 ], [ -99.319136040111644, 19.54181996153623, 0.0 ], [ -99.319034308293553, 19.541687981701386, 0.0 ], [ -99.318927481310197, 19.541610841841202, 0.0 ], [ -99.318864591165351, 19.541539572840694, 0.0 ], [ -99.318682090377195, 19.541272219436841, 0.0 ], [ -99.318430775146908, 19.54111205713405, 0.0 ], [ -99.318323574837478, 19.54084457023988, 0.0 ], [ -99.318304353615773, 19.540642360612679, 0.0 ], [ -99.31814191643592, 19.540465755549651, 0.0 ], [ -99.317767950313495, 19.540352320650953, 0.0 ], [ -99.317571377791467, 19.540250583064587, 0.0 ], [ -99.317539349970346, 19.540075969110955, 0.0 ], [ -99.317564286689233, 19.539961441456782, 0.0 ], [ -99.317609379442985, 19.53986118861247, 0.0 ], [ -99.31773697314577, 19.539657303182498, 0.0 ], [ -99.317739050156121, 19.539658740352117, 0.0 ], [ -99.317615067087715, 19.539856856263668, 0.0 ], [ -99.317569974338653, 19.539957109109373, 0.0 ], [ -99.317545037624399, 19.540071636764345, 0.0 ], [ -99.317577065450706, 19.540246250716972, 0.0 ], [ -99.317773637970902, 19.540347988297235, 0.0 ], [ -99.318147604087102, 19.540461423184293, 0.0 ], [ -99.31831004126866, 19.540638028242277, 0.0 ], [ -99.318329262496832, 19.540840237868906, 0.0 ], [ -99.318436462812599, 19.541107724759662, 0.0 ] ] ] ] } },
{ "type": "Feature", "properties": { "Area": 22989.1, "Perimetro": 791.317, "Colonia": "Rinconada Bonfil", "Status": "Sin antecedentes registrales", "Origen": "Ejidal", "Institucio": "INSUS", "Poligono": "Rinconada Bonfil", "No_Lotes": "SIN DATO", "Via_de_Reg": "SIN DATO", "Status_Gen": "Irregular", "Area Has": 2.301 }, "geometry": { "type": "MultiPolygon", "coordinates": [ [ [ [ -99.243570027846161, 19.583995901252067, 0.0 ], [ -99.243843282851799, 19.584548148726, 0.0 ], [ -99.244716018102181, 19.585685846905172, 0.0 ], [ -99.245025250892851, 19.586229347516767, 0.0 ], [ -99.245168872511982, 19.586569208173316, 0.0 ], [ -99.245218791828535, 19.586687334948106, 0.0 ], [ -99.245236755793741, 19.586789100240154, 0.0 ], [ -99.243117478265319, 19.5852794307125, 0.0 ], [ -99.24317517912354, 19.584506703192147, 0.0 ], [ -99.243570027846161, 19.583995901252067, 0.0 ] ] ] ] } },
{ "type": "Feature", "properties": { "Area": 20147.8, "Perimetro": 830.995, "Colonia": "Sagitario II", "Status": "Bajo Resguardo y Custodia (R.L.T)", "Origen": "Propiedad Privada", "Institucio": "IMEVIS", "Poligono": "Sagitario II", "No_Lotes": "SIN DATO", "Via_de_Reg": "SIN DATO", "Status_Gen": "Irregular", "Area Has": 2.016 }, "geometry": { "type": "MultiPolygon", "coordinates": [ [ [ [ -99.265899233703308, 19.59577041048459, 0.0 ], [ -99.26445042469112, 19.596863380185891, 0.0 ], [ -99.263864635607518, 19.596194744655794, 0.0 ], [ -99.266244406210134, 19.594384675851533, 0.0 ], [ -99.26630760464279, 19.594456014524596, 0.0 ], [ -99.265387014689523, 19.595162015853887, 0.0 ], [ -99.265899233703308, 19.59577041048459, 0.0 ] ] ] ] } },
{ "type": "Feature", "properties": { "Area": 50108.8, "Perimetro": 961.764, "Colonia": "Ampliacion Las Agulas", "Status": "Parado por Riesgo", "Origen": "Ejidal", "Institucio": "INSUS", "Poligono": "Apliación Las Aguilas", "No_Lotes": "142", "Via_de_Reg": "SIN DATO", "Status_Gen": "Irregular", "Area Has": 5.015 }, "geometry": { "type": "MultiPolygon", "coordinates": [ [ [ [ -99.254735421084263, 19.588299387854693, 0.0 ], [ -99.25424779741418, 19.588218859940241, 0.0 ], [ -99.253968244612935, 19.587561235903355, 0.0 ], [ -99.253558141370988, 19.587308600417074, 0.0 ], [ -99.253149749407541, 19.586212995424951, 0.0 ], [ -99.253052046753709, 19.586248998365956, 0.0 ], [ -99.25277596125585, 19.585544622275751, 0.0 ], [ -99.253240348547024, 19.585295045639789, 0.0 ], [ -99.253896566721281, 19.58488123115707, 0.0 ], [ -99.254046675298937, 19.585057980786402, 0.0 ], [ -99.254592497040591, 19.5856209717399, 0.0 ], [ -99.255079099247837, 19.587060336235655, 0.0 ], [ -99.254735421084263, 19.588299387854693, 0.0 ] ] ] ] } },
{ "type": "Feature", "properties": { "Area": 149921.0, "Perimetro": 2639.46, "Colonia": "Viejo Madín", "Status": "Restricción Federal por uso de suelo", "Origen": "Propiedad Privada", "Institucio": "IMEVIS", "Poligono": "Viejo Madín", "No_Lotes": "SIN DATO", "Via_de_Reg": "SIN DATO", "Status_Gen": "Irregular", "Area Has": 15.004 }, "geometry": { "type": "MultiPolygon", "coordinates": [ [ [ [ -99.26370865764703, 19.533766660411921, 0.0 ], [ -99.263845213757051, 19.533240286046691, 0.0 ], [ -99.263765948888917, 19.532985019675692, 0.0 ], [ -99.263509798175548, 19.532834721885063, 0.0 ], [ -99.263104278116415, 19.532931567819126, 0.0 ], [ -99.262695147008429, 19.533066797350834, 0.0 ], [ -99.262545806980569, 19.533099536773506, 0.0 ], [ -99.262511496234197, 19.532886043356079, 0.0 ], [ -99.262521463244241, 19.532984176431317, 0.0 ], [ -99.262515719592301, 19.532791494424679, 0.0 ], [ -99.262482201140585, 19.532706223811459, 0.0 ], [ -99.262435476512607, 19.532598830715724, 0.0 ], [ -99.262410213028616, 19.532434644955313, 0.0 ], [ -99.262387565530119, 19.532261129171474, 0.0 ], [ -99.262329632310696, 19.532106235082779, 0.0 ], [ -99.262314132717123, 19.53203579687181, 0.0 ], [ -99.262418695792917, 19.531912058998262, 0.0 ], [ -99.262809939030276, 19.53161731508083, 0.0 ], [ -99.263046300515484, 19.531396288569475, 0.0 ], [ -99.263308580545853, 19.531120305706629, 0.0 ], [ -99.263771998779816, 19.530927123419414, 0.0 ], [ -99.263838015120129, 19.530911759271277, 0.0 ], [ -99.263905324936758, 19.530902757193278, 0.0 ], [ -99.263973247941152, 19.530900208167779, 0.0 ], [ -99.264041097647649, 19.530904137957272, 0.0 ], [ -99.264108188311326, 19.530914506843871, 0.0 ], [ -99.264173841858565, 19.530931210031081, 0.0 ], [ -99.264237394739965, 19.530954078702521, 0.0 ], [ -99.264284817035659, 19.530997210187557, 0.0 ], [ -99.264329568331078, 19.531042835081255, 0.0 ], [ -99.264371503019817, 19.531090804936998, 0.0 ], [ -99.26440934016307, 19.531147879727786, 0.0 ], [ -99.264451461445688, 19.531202190066107, 0.0 ], [ -99.264497643120322, 19.531253447451324, 0.0 ], [ -99.264530770002395, 19.531303839552837, 0.0 ], [ -99.264558750856395, 19.531356962361627, 0.0 ], [ -99.264581337589249, 19.531412344872404, 0.0 ], [ -99.264598329933349, 19.531469496044206, 0.0 ], [ -99.264609577222458, 19.531527909153667, 0.0 ], [ -99.264614979727668, 19.53158706628837, 0.0 ], [ -99.264649545868778, 19.531767362160775, 0.0 ], [ -99.264689482805892, 19.531946657783703, 0.0 ], [ -99.264702266731533, 19.531989352460723, 0.0 ], [ -99.264799062529619, 19.532175295868271, 0.0 ], [ -99.26492426024079, 19.532411301673328, 0.0 ], [ -99.264962111285172, 19.532498516628671, 0.0 ], [ -99.264995590585883, 19.532534594083863, 0.0 ], [ -99.265021696172425, 19.532563442812091, 0.0 ], [ -99.265112272436511, 19.532665395220242, 0.0 ], [ -99.265175909366064, 19.532710097179333, 0.0 ], [ -99.265347166231081, 19.5328103389338, 0.0 ], [ -99.265412960968249, 19.532832796506902, 0.0 ], [ -99.265502917129396, 19.532857360333747, 0.0 ], [ -99.265558051655944, 19.532885119920547, 0.0 ], [ -99.265605569179783, 19.532919315387453, 0.0 ], [ -99.265645263106947, 19.532947880667553, 0.0 ], [ -99.265711302028436, 19.533021001003338, 0.0 ], [ -99.265757806089127, 19.533093624784922, 0.0 ], [ -99.265775724655668, 19.533141270981019, 0.0 ], [ -99.265782308676322, 19.533174474181788, 0.0 ], [ -99.265768191930178, 19.533255989668046, 0.0 ], [ -99.265733295365379, 19.53336369286809, 0.0 ], [ -99.265724701318803, 19.533414221603948, 0.0 ], [ -99.265715063261112, 19.533470888571081, 0.0 ], [ -99.265706162653913, 19.533528872272957, 0.0 ], [ -99.265699053614881, 19.533590495426534, 0.0 ], [ -99.265693615332424, 19.533660820101638, 0.0 ], [ -99.265695119159346, 19.53369606416808, 0.0 ], [ -99.265704306098058, 19.533732692129224, 0.0 ], [ -99.265729641282235, 19.533761146679591, 0.0 ], [ -99.265780111963238, 19.533815394668011, 0.0 ], [ -99.265824035580366, 19.53389307379965, 0.0 ], [ -99.265871306851466, 19.534010105973902, 0.0 ], [ -99.265932327258426, 19.534120038927757, 0.0 ], [ -99.265984714558599, 19.534287537409586, 0.0 ], [ -99.266033310583566, 19.534447577352175, 0.0 ], [ -99.266053667863318, 19.534554572225254, 0.0 ], [ -99.266059189846885, 19.534665239539869, 0.0 ], [ -99.266036313739633, 19.534836743273264, 0.0 ], [ -99.266000590589357, 19.534990665799818, 0.0 ], [ -99.265996406415866, 19.535015735718918, 0.0 ], [ -99.265995839302789, 19.535029445149444, 0.0 ], [ -99.265994604839548, 19.535048686065359, 0.0 ], [ -99.265995869071133, 19.535063665286881, 0.0 ], [ -99.266000431814149, 19.535126221037437, 0.0 ], [ -99.266003282061902, 19.535195173144317, 0.0 ], [ -99.266001134310031, 19.535232835326276, 0.0 ], [ -99.265999715594077, 19.535308923679374, 0.0 ], [ -99.26602836756166, 19.535402243026301, 0.0 ], [ -99.266070908259508, 19.535486684974469, 0.0 ], [ -99.266092025205026, 19.53561537409453, 0.0 ], [ -99.266114199741935, 19.535711095121588, 0.0 ], [ -99.266140141426774, 19.535682813074921, 0.0 ], [ -99.266274220037346, 19.53561223200763, 0.0 ], [ -99.266284223339596, 19.535600510616543, 0.0 ], [ -99.266303746918069, 19.535588218234569, 0.0 ], [ -99.266405483353353, 19.535536362114495, 0.0 ], [ -99.266416662072203, 19.535530062556195, 0.0 ], [ -99.266430969018458, 19.53551364138352, 0.0 ], [ -99.266441389997809, 19.53549607125705, 0.0 ], [ -99.266450269300947, 19.53547290077638, 0.0 ], [ -99.266464484974023, 19.535429637445297, 0.0 ], [ -99.266539489098236, 19.535201372919573, 0.0 ], [ -99.266619119731416, 19.534959027536004, 0.0 ], [ -99.266644788634665, 19.534880594840761, 0.0 ], [ -99.266664604911227, 19.534819669381754, 0.0 ], [ -99.266701337140631, 19.53470673543049, 0.0 ], [ -99.266756210524576, 19.534538025845414, 0.0 ], [ -99.266809425411708, 19.534374415003803, 0.0 ], [ -99.266837497328368, 19.534288106877181, 0.0 ], [ -99.266894004768773, 19.534114372413018, 0.0 ], [ -99.266945812279033, 19.533955087740853, 0.0 ], [ -99.267005419536289, 19.533771821973172, 0.0 ], [ -99.267091761026776, 19.533516823797243, 0.0 ], [ -99.267150734803522, 19.533401485446404, 0.0 ], [ -99.267264959831834, 19.533168282262917, 0.0 ], [ -99.267303620799723, 19.533089351401806, 0.0 ], [ -99.267354711697394, 19.532998897680983, 0.0 ], [ -99.267453023416707, 19.532866916247418, 0.0 ], [ -99.267512056398601, 19.532801819268986, 0.0 ], [ -99.267588582280055, 19.532737667627302, 0.0 ], [ -99.267644107241154, 19.532711969019932, 0.0 ], [ -99.267712014205216, 19.532688348799311, 0.0 ], [ -99.267756810962496, 19.532677009013398, 0.0 ], [ -99.267793808853, 19.532670020459566, 0.0 ], [ -99.267830533422199, 19.532670611067346, 0.0 ], [ -99.26787072921509, 19.532675835409123, 0.0 ], [ -99.267921884789118, 19.532689836836923, 0.0 ], [ -99.267970640330304, 19.532711978738021, 0.0 ], [ -99.268022886919979, 19.532748099379134, 0.0 ], [ -99.268067889718751, 19.532795065736497, 0.0 ], [ -99.268094350490017, 19.532835368171064, 0.0 ], [ -99.268114382969145, 19.532880278203287, 0.0 ], [ -99.268123628459435, 19.532912381713388, 0.0 ], [ -99.268130176820108, 19.532956464710502, 0.0 ], [ -99.268130774013471, 19.53298620983189, 0.0 ], [ -99.268127824301757, 19.533019516523215, 0.0 ], [ -99.268110545854626, 19.533080611884301, 0.0 ], [ -99.268077584301082, 19.533173394068726, 0.0 ], [ -99.267910968175883, 19.533585725017431, 0.0 ], [ -99.267818735106303, 19.533793066161746, 0.0 ], [ -99.267700282038234, 19.534101800454781, 0.0 ], [ -99.267607130074182, 19.534388494954896, 0.0 ], [ -99.267447737546377, 19.534883778039934, 0.0 ], [ -99.267418197889512, 19.534973696494923, 0.0 ], [ -99.267344005664469, 19.535206607680379, 0.0 ], [ -99.267257660616067, 19.535471961421603, 0.0 ], [ -99.267199021872585, 19.535651771110256, 0.0 ], [ -99.267196156930467, 19.53566145531714, 0.0 ], [ -99.267211778755453, 19.535726207113832, 0.0 ], [ -99.267228594038087, 19.535794375508242, 0.0 ], [ -99.267212082523884, 19.535943680437061, 0.0 ], [ -99.267190152005824, 19.536175935169517, 0.0 ], [ -99.267170532894866, 19.536344235286101, 0.0 ], [ -99.267154647392502, 19.536482933823752, 0.0 ], [ -99.266828151973115, 19.536381105189481, 0.0 ], [ -99.266639399418608, 19.536299639521154, 0.0 ], [ -99.265800504684165, 19.535994844314594, 0.0 ], [ -99.265679729530092, 19.535950962720484, 0.0 ], [ -99.265243567521921, 19.535439184014493, 0.0 ], [ -99.264872402130294, 19.535404819546045, 0.0 ], [ -99.263810514121317, 19.535309468598022, 0.0 ], [ -99.26360636253564, 19.534589576591213, 0.0 ], [ -99.263620215904808, 19.534361188677494, 0.0 ], [ -99.26370865764703, 19.533766660411921, 0.0 ] ] ] ] } },
{ "type": "Feature", "properties": { "Area": 18643.9, "Perimetro": 626.113, "Colonia": "Rancho Castro", "Status": "Riesgo y asentamiento en zona federal", "Origen": "Propiedad Privada", "Institucio": "IMEVIS", "Poligono": "Rancho Castro", "No_Lotes": "SIN DATO", "Via_de_Reg": "SIN DATO", "Status_Gen": "Irregular", "Area Has": 1.866 }, "geometry": { "type": "MultiPolygon", "coordinates": [ [ [ [ -99.255049292927552, 19.523889706270381, 0.0 ], [ -99.255432739140019, 19.523370075680027, 0.0 ], [ -99.255733438309846, 19.523427862278233, 0.0 ], [ -99.255743645763346, 19.523730420206167, 0.0 ], [ -99.256091425653665, 19.523968242834851, 0.0 ], [ -99.25607135181238, 19.52411074896834, 0.0 ], [ -99.256532689658755, 19.524419616170757, 0.0 ], [ -99.25595993435158, 19.524510916889323, 0.0 ], [ -99.255652639888126, 19.52476848034166, 0.0 ], [ -99.2556564356899, 19.525082049675046, 0.0 ], [ -99.255418813272286, 19.525227445702409, 0.0 ], [ -99.255211077707443, 19.524989199717997, 0.0 ], [ -99.254588824674414, 19.524386262121563, 0.0 ], [ -99.254790326895673, 19.524084169316982, 0.0 ], [ -99.255049292927552, 19.523889706270381, 0.0 ] ] ] ] } },
{ "type": "Feature", "properties": { "Area": 10210.5, "Perimetro": 391.152, "Colonia": "Rancho Castro", "Status": "Riesgo por presa Madin", "Origen": "Propiedad Privada", "Institucio": "IMEVIS", "Poligono": "Rancho Castro", "No_Lotes": "SIN DATO", "Via_de_Reg": "SIN DATO", "Status_Gen": "Irregular", "Area Has": 1.022 }, "geometry": { "type": "MultiPolygon", "coordinates": [ [ [ [ -99.258505061407647, 19.524777528325842, 0.0 ], [ -99.258070232675308, 19.524594408955465, 0.0 ], [ -99.257776834565007, 19.524460744391629, 0.0 ], [ -99.25783408688261, 19.524247125299585, 0.0 ], [ -99.258090099158039, 19.523919006165201, 0.0 ], [ -99.258367274759991, 19.52372990465555, 0.0 ], [ -99.258519304404331, 19.523858799172693, 0.0 ], [ -99.258872775999663, 19.524111862716929, 0.0 ], [ -99.259148405175267, 19.524394224821041, 0.0 ], [ -99.258892489237837, 19.524781939131056, 0.0 ], [ -99.258505061407647, 19.524777528325842, 0.0 ] ] ] ] } },
{ "type": "Feature", "properties": { "Area": 82104.8, "Perimetro": 1619.06, "Colonia": "Los Cajones", "Status": "Poligono en zona de Comuneros", "Origen": "Propiedad Privada", "Institucio": "IMEVIS", "Poligono": "Los Cajones", "No_Lotes": "SIN DATO", "Via_de_Reg": "SIN DATO", "Status_Gen": "Irregular", "Area Has": 8.217 }, "geometry": { "type": "MultiPolygon", "coordinates": [ [ [ [ -99.256128829344334, 19.540215560875215, 0.0 ], [ -99.256739417250515, 19.541644312631107, 0.0 ], [ -99.256111694212507, 19.541824533629814, 0.0 ], [ -99.255492554201425, 19.540247306015054, 0.0 ], [ -99.255783726876302, 19.540164403114744, 0.0 ], [ -99.255441551002463, 19.539088906195236, 0.0 ], [ -99.257070126079157, 19.538986882617714, 0.0 ], [ -99.257142848699971, 19.538390693519013, 0.0 ], [ -99.259037872507378, 19.538197897141011, 0.0 ], [ -99.25966524733856, 19.540176800288247, 0.0 ], [ -99.256128829344334, 19.540215560875215, 0.0 ] ] ] ] } },
{ "type": "Feature", "properties": { "Area": 27408.5, "Perimetro": 701.725, "Colonia": "Las Flores", "Status": "Dentro de la poligonal de comuneros", "Origen": "Propiedad Privada", "Institucio": "IMEVIS", "Poligono": "Las Flores y Ampl. Las Flores", "No_Lotes": "SIN DATO", "Via_de_Reg": "SIN DATO", "Status_Gen": "Irregular", "Area Has": 2.743 }, "geometry": { "type": "MultiPolygon", "coordinates": [ [ [ [ -99.248712961324856, 19.543768729816122, 0.0 ], [ -99.24879330091504, 19.543772663175044, 0.0 ], [ -99.248844561986544, 19.542976339656935, 0.0 ], [ -99.249537642126626, 19.54295262487301, 0.0 ], [ -99.249540540091559, 19.542913397998536, 0.0 ], [ -99.249838101765036, 19.542896408623797, 0.0 ], [ -99.250043200736187, 19.544859335914811, 0.0 ], [ -99.24986799319062, 19.544865984475884, 0.0 ], [ -99.249506732436075, 19.544879692618004, 0.0 ], [ -99.249297199083429, 19.544887643088785, 0.0 ], [ -99.248603841365721, 19.544913949908789, 0.0 ], [ -99.248712961324856, 19.543768729816122, 0.0 ] ] ] ] } },
{ "type": "Feature", "properties": { "Area": 34663.9, "Perimetro": 825.408, "Colonia": "El chaparral Ampliación", "Status": "Una parte en poligono de Comuneros", "Origen": "Propiedad Privada", "Institucio": "IMEVIS", "Poligono": "Ampliación el Chaparral", "No_Lotes": "SIN DATO", "Via_de_Reg": "SIN DATO", "Status_Gen": "Irregular", "Area Has": 3.469 }, "geometry": { "type": "MultiPolygon", "coordinates": [ [ [ [ -99.245486964879262, 19.540304172199953, 0.0 ], [ -99.245218875502047, 19.539340831593272, 0.0 ], [ -99.246334241580072, 19.539108865057614, 0.0 ], [ -99.248123546760965, 19.540164939760341, 0.0 ], [ -99.248220602739281, 19.540547946467498, 0.0 ], [ -99.248244446838441, 19.540638247795169, 0.0 ], [ -99.246910838221652, 19.540645718281972, 0.0 ], [ -99.246919782892135, 19.540489181122172, 0.0 ], [ -99.246065959948311, 19.540612091133127, 0.0 ], [ -99.245564994991312, 19.540282327496175, 0.0 ], [ -99.245486964879262, 19.540304172199953, 0.0 ] ] ] ] } },
{ "type": "Feature", "properties": { "Area": 18757.5, "Perimetro": 982.417, "Colonia": "San Martín de Porres Ampliación", "Status": "Solicitud de Iforme a la DAS", "Origen": "Propiedad Privada", "Institucio": "IMEVIS", "Poligono": "Calle Loma Larga", "No_Lotes": "108", "Via_de_Reg": "SIN DATO", "Status_Gen": "Irregular", "Area Has": 1.877 }, "geometry": { "type": "MultiPolygon", "coordinates": [ [ [ [ -99.248534002621739, 19.53876158361976, 0.0 ], [ -99.248498515060433, 19.537446578362214, 0.0 ], [ -99.248515240293841, 19.537417140146086, 0.0 ], [ -99.248522729622366, 19.537402604535636, 0.0 ], [ -99.248533245525451, 19.537343249428893, 0.0 ], [ -99.24854303193537, 19.537322352594245, 0.0 ], [ -99.248571414495345, 19.537265102010434, 0.0 ], [ -99.248628673834844, 19.537150819677901, 0.0 ], [ -99.248658980766848, 19.537090433457056, 0.0 ], [ -99.248686484279816, 19.537034784749626, 0.0 ], [ -99.248714655559709, 19.536979441245784, 0.0 ], [ -99.248742337559179, 19.536924875587268, 0.0 ], [ -99.248771541762721, 19.536866293980196, 0.0 ], [ -99.248800112211399, 19.536809126940678, 0.0 ], [ -99.248829991996075, 19.536750649745482, 0.0 ], [ -99.248847753266816, 19.536715890632085, 0.0 ], [ -99.249075074563464, 19.536808486178714, 0.0 ], [ -99.249252664788926, 19.536879755344355, 0.0 ], [ -99.248923220880556, 19.537494711606875, 0.0 ], [ -99.248940496652224, 19.53889346340452, 0.0 ], [ -99.249951554014345, 19.540508900178949, 0.0 ], [ -99.249798236480956, 19.540468221379335, 0.0 ], [ -99.24972689102637, 19.540456351266872, 0.0 ], [ -99.249665338774875, 19.540443867475734, 0.0 ], [ -99.24958860064703, 19.540429774170562, 0.0 ], [ -99.249420761587828, 19.540391123409393, 0.0 ], [ -99.249362753414204, 19.540298091819764, 0.0 ], [ -99.249293373154131, 19.540190544526869, 0.0 ], [ -99.249257547003012, 19.540135012896677, 0.0 ], [ -99.249218676603277, 19.540074757866083, 0.0 ], [ -99.249124641601483, 19.539919566487935, 0.0 ], [ -99.249087802800119, 19.539861479644408, 0.0 ], [ -99.249050621351287, 19.53980263980683, 0.0 ], [ -99.248972759839432, 19.539678307908726, 0.0 ], [ -99.248924237423481, 19.539600522555801, 0.0 ], [ -99.248890514454544, 19.539545936667054, 0.0 ], [ -99.248856772323322, 19.539491360174672, 0.0 ], [ -99.248789243733768, 19.539381710808509, 0.0 ], [ -99.248726378280011, 19.539271993219231, 0.0 ], [ -99.24868490583124, 19.539206004110525, 0.0 ], [ -99.24864367465608, 19.539139878970818, 0.0 ], [ -99.248602752764199, 19.539073577992948, 0.0 ], [ -99.248541248649616, 19.538973153686907, 0.0 ], [ -99.248536945183318, 19.538888067906413, 0.0 ], [ -99.248536087390349, 19.538824812233148, 0.0 ], [ -99.248534002621739, 19.53876158361976, 0.0 ] ] ] ] } },
{ "type": "Feature", "properties": { "Area": 80837.6, "Perimetro": 1276.47, "Colonia": "Ex Hacienda del Pedregal", "Status": "Zona de Riesgo por Minas", "Origen": "Propiedad Privada", "Institucio": "IMEVIS", "Poligono": "Ex Hacienda del Pedregal 129 Lotes", "No_Lotes": "129", "Via_de_Reg": "SIN DATO", "Status_Gen": "Irregular", "Area Has": 8.09 }, "geometry": { "type": "MultiPolygon", "coordinates": [ [ [ [ -99.269647607254853, 19.597571503827545, 0.0 ], [ -99.273190026829965, 19.594520272431499, 0.0 ], [ -99.274061562012605, 19.596299197914703, 0.0 ], [ -99.270908202089615, 19.598312395315421, 0.0 ], [ -99.270812287874705, 19.598333011218038, 0.0 ], [ -99.269647607254853, 19.597571503827545, 0.0 ] ] ] ] } },
{ "type": "Feature", "properties": { "Area": 11884.2, "Perimetro": 506.013, "Colonia": "Adolfo López Mateos", "Status": "Pendiente de Dictamen de Protección Civil", "Origen": "Propiedad Privada", "Institucio": "IMEVIS", "Poligono": "Lote 04 Ex Hacienda del Pedregal", "No_Lotes": "37", "Via_de_Reg": "SIN DATO", "Status_Gen": "Irregular", "Area Has": 1.189 }, "geometry": { "type": "MultiPolygon", "coordinates": [ [ [ [ -99.270696420568513, 19.592120626404771, 0.0 ], [ -99.272047549994525, 19.591092763460239, 0.0 ], [ -99.271952505908828, 19.592147030408082, 0.0 ], [ -99.271910877679872, 19.592720471715069, 0.0 ], [ -99.270696420568513, 19.592120626404771, 0.0 ] ] ] ] } },
{ "type": "Feature", "properties": { "Area": 143495.0, "Perimetro": 1973.42, "Colonia": "Ampliacion 5 de Mayo", "Status": "En riesgo por inestabilidad del suelo", "Origen": "Ejidal", "Institucio": "INSUS", "Poligono": "Ex Relleno Sanitario Ampl. 5 de Mayo", "No_Lotes": "1", "Via_de_Reg": "SIN DATO", "Status_Gen": "Irregular", "Area Has": 14.361 }, "geometry": { "type": "MultiPolygon", "coordinates": [ [ [ [ -99.254087325254631, 19.588176227740142, 0.0 ], [ -99.253121263372122, 19.588112174373173, 0.0 ], [ -99.250707269738427, 19.587104983310031, 0.0 ], [ -99.249288881149567, 19.586524254840171, 0.0 ], [ -99.248547829102208, 19.585074114047949, 0.0 ], [ -99.247735818667465, 19.584539405458397, 0.0 ], [ -99.248946409035113, 19.584169010169386, 0.0 ], [ -99.249341796703547, 19.583492379710002, 0.0 ], [ -99.24992067694447, 19.583445515156811, 0.0 ], [ -99.25002359490054, 19.583135829550823, 0.0 ], [ -99.250212986458067, 19.583149179832535, 0.0 ], [ -99.250097339947501, 19.58414520248558, 0.0 ], [ -99.252558147268658, 19.585803399763503, 0.0 ], [ -99.252813287006646, 19.585639853235488, 0.0 ], [ -99.253052046158032, 19.586249359014328, 0.0 ], [ -99.253149749391767, 19.586213355592651, 0.0 ], [ -99.253558141560049, 19.587308961047064, 0.0 ], [ -99.253968245047147, 19.587561596886953, 0.0 ], [ -99.254240575842189, 19.588202233693085, 0.0 ], [ -99.254087325254631, 19.588176227740142, 0.0 ] ] ] ] } },
{ "type": "Feature", "properties": { "Area": 2669.29, "Perimetro": 337.802, "Colonia": "1ro de Septiembre", "Status": "Identificado con zona sin expropiacion", "Origen": "Ejidal", "Institucio": "INSUS", "Poligono": "1ro de Setiembre", "No_Lotes": "16", "Via_de_Reg": "SIN DATO", "Status_Gen": "Irregular", "Area Has": 0.267 }, "geometry": { "type": "MultiPolygon", "coordinates": [ [ [ [ -99.254819917304133, 19.592601519096508, 0.0 ], [ -99.256268801970563, 19.592172745932118, 0.0 ], [ -99.256306661460599, 19.592308627595923, 0.0 ], [ -99.255754410871702, 19.592574670529476, 0.0 ], [ -99.255334588998863, 19.592600790911032, 0.0 ], [ -99.254819917304133, 19.592601519096508, 0.0 ] ] ] ] } },
{ "type": "Feature", "properties": { "Area": 6861.62, "Perimetro": 553.073, "Colonia": "El Capulin Ampliacion", "Status": "Fuera de expropiacion", "Origen": "Sin antecedente", "Institucio": "SIN DATO", "Poligono": "El Capulin Ampliacion", "No_Lotes": "22", "Via_de_Reg": "SIN DATO", "Status_Gen": "Irregular", "Area Has": 0.687 }, "geometry": { "type": "MultiPolygon", "coordinates": [ [ [ [ -99.244967492089458, 19.600964251849973, 0.0 ], [ -99.24655245447542, 19.599530917533109, 0.0 ], [ -99.246747305405805, 19.599689169518541, 0.0 ], [ -99.246628757771077, 19.599710851531643, 0.0 ], [ -99.24650015562689, 19.599758848587282, 0.0 ], [ -99.246175152188982, 19.600065345991712, 0.0 ], [ -99.246104966444406, 19.600366715618396, 0.0 ], [ -99.245109383668691, 19.601300860270257, 0.0 ], [ -99.244967492089458, 19.600964251849973, 0.0 ] ] ] ] } },
{ "type": "Feature", "properties": { "Area": 2032.09, "Perimetro": 362.93, "Colonia": "Prados de Ixtacala 2da Seccion", "Status": "Fuera de Expropiacion", "Origen": "Sin antecedente", "Institucio": "SIN DATO", "Poligono": "Prados de Ixtacala", "No_Lotes": "9", "Via_de_Reg": "SIN DATO", "Status_Gen": "Irregular", "Area Has": 0.203 }, "geometry": { "type": "MultiPolygon", "coordinates": [ [ [ [ -99.245006052269531, 19.601404058404906, 0.0 ], [ -99.244444729666526, 19.599948036780049, 0.0 ], [ -99.244529889137681, 19.59990794520369, 0.0 ], [ -99.245109383668691, 19.601300860270257, 0.0 ], [ -99.245006052269531, 19.601404058404906, 0.0 ] ] ] ] } },
{ "type": "Feature", "properties": { "Area": 44540.9, "Perimetro": 1194.97, "Colonia": "El calvario", "Status": "Sin antecedentes", "Origen": "Propiedad Privada", "Institucio": "IMEVIS", "Poligono": "El Calvario", "No_Lotes": "SIN DATO", "Via_de_Reg": "SIN DATO", "Status_Gen": "Irregular", "Area Has": 4.458 }, "geometry": { "type": "MultiPolygon", "coordinates": [ [ [ [ -99.253118488981499, 19.528845931321943, 0.0 ], [ -99.253115964423529, 19.528948092527525, 0.0 ], [ -99.253105608659126, 19.528998674271033, 0.0 ], [ -99.252824279350264, 19.528932360898668, 0.0 ], [ -99.252817129570886, 19.528957117556683, 0.0 ], [ -99.252811472337541, 19.528968243124758, 0.0 ], [ -99.25280770700472, 19.528979368253168, 0.0 ], [ -99.252799399904973, 19.528989421944523, 0.0 ], [ -99.25275200624985, 19.528957182695628, 0.0 ], [ -99.252707937019991, 19.528957244305154, 0.0 ], [ -99.252614114475577, 19.528941124218509, 0.0 ], [ -99.252560002911252, 19.528942746456281, 0.0 ], [ -99.252506840413574, 19.528950493205354, 0.0 ], [ -99.252391804296266, 19.528955286573872, 0.0 ], [ -99.252109433453882, 19.529013506079451, 0.0 ], [ -99.252012137266718, 19.529040938909553, 0.0 ], [ -99.2518941522668, 19.529068361354351, 0.0 ], [ -99.251675577550799, 19.52911720487042, 0.0 ], [ -99.251646941253199, 19.529133346474111, 0.0 ], [ -99.251582713596619, 19.529171624547516, 0.0 ], [ -99.251564585738763, 19.529190779690612, 0.0 ], [ -99.251598612530273, 19.529351505370553, 0.0 ], [ -99.251865352039601, 19.529918964529045, 0.0 ], [ -99.251877108111444, 19.530035860041181, 0.0 ], [ -99.251829188812366, 19.53003353680565, 0.0 ], [ -99.251728315649459, 19.530036067301957, 0.0 ], [ -99.251584600646908, 19.530060178938754, 0.0 ], [ -99.251399899210043, 19.530102252872513, 0.0 ], [ -99.251308308515888, 19.530132868286202, 0.0 ], [ -99.251170666268422, 19.530167395471903, 0.0 ], [ -99.251095501406994, 19.530198151222287, 0.0 ], [ -99.250968045272572, 19.530260929295149, 0.0 ], [ -99.2509335055245, 19.530169732595521, 0.0 ], [ -99.250724925413948, 19.529793156292424, 0.0 ], [ -99.250319006822139, 19.529823761772295, 0.0 ], [ -99.250226177359707, 19.529841070371049, 0.0 ], [ -99.249761890866012, 19.530010612477056, 0.0 ], [ -99.24952488106274, 19.530217201674695, 0.0 ], [ -99.248950792729644, 19.529539505540605, 0.0 ], [ -99.24943661780469, 19.529234086461585, 0.0 ], [ -99.250084392856152, 19.528882107694105, 0.0 ], [ -99.250483686699965, 19.528682651611028, 0.0 ], [ -99.250991972473756, 19.528579259975913, 0.0 ], [ -99.251641353354671, 19.528600215256333, 0.0 ], [ -99.252323445216476, 19.528385475207724, 0.0 ], [ -99.252940319655451, 19.528337072437012, 0.0 ], [ -99.253120979767743, 19.528553266942691, 0.0 ], [ -99.253118488981499, 19.528845931321943, 0.0 ] ] ] ] } },
{ "type": "Feature", "properties": { "Area": 2564.53, "Perimetro": 261.248, "Colonia": "1ro de Septiembre", "Status": "Zona de riesgo", "Origen": "Ejidal", "Institucio": "INSUS", "Poligono": "Mz-12", "No_Lotes": "5", "Via_de_Reg": "Liberacion de Riesgo", "Status_Gen": "En proceso de regularización", "Area Has": 0.257 }, "geometry": { "type": "MultiPolygon", "coordinates": [ [ [ [ -99.254419049560639, 19.591433343521757, 0.0 ], [ -99.254674084902888, 19.592376969294499, 0.0 ], [ -99.254425931360004, 19.592441878946932, 0.0 ], [ -99.254229959628901, 19.591513949046011, 0.0 ], [ -99.254419049560639, 19.591433343521757, 0.0 ] ] ] ] } },
{ "type": "Feature", "properties": { "Area": 3406.31, "Perimetro": 284.328, "Colonia": "1ro de Septiembre", "Status": "Zona de riesgo", "Origen": "Ejidal", "Institucio": "INSUS", "Poligono": "Mz-13", "No_Lotes": "25", "Via_de_Reg": "Liberacion de Riesgo", "Status_Gen": "En proceso de regularización", "Area Has": 0.341 }, "geometry": { "type": "MultiPolygon", "coordinates": [ [ [ [ -99.254758818216075, 19.592353896824243, 0.0 ], [ -99.254490896693795, 19.591397375850892, 0.0 ], [ -99.254763197429455, 19.59128939467994, 0.0 ], [ -99.255038743390301, 19.592280334972862, 0.0 ], [ -99.254758818216075, 19.592353896824243, 0.0 ] ] ] ] } },
{ "type": "Feature", "properties": { "Area": 864.299, "Perimetro": 117.872, "Colonia": "1ro de Septiembre", "Status": "Zona de riesgo", "Origen": "Ejidal", "Institucio": "INSUS", "Poligono": "Mz-15", "No_Lotes": "6", "Via_de_Reg": "Liberacion de Riesgo", "Status_Gen": "En proceso de regularización", "Area Has": 0.086 }, "geometry": { "type": "MultiPolygon", "coordinates": [ [ [ [ -99.255209018198215, 19.591146256075049, 0.0 ], [ -99.255493470899353, 19.591063601551479, 0.0 ], [ -99.255560461031024, 19.591308350916346, 0.0 ], [ -99.255271962804329, 19.591385273223779, 0.0 ], [ -99.255209018198215, 19.591146256075049, 0.0 ] ] ] ] } },
{ "type": "Feature", "properties": { "Area": 821.344, "Perimetro": 114.843, "Colonia": "1ro de Septiembre", "Status": "Zona de riesgo", "Origen": "Ejidal", "Institucio": "INSUS", "Poligono": "Mz-16", "No_Lotes": "6", "Via_de_Reg": "Liberacion de Riesgo", "Status_Gen": "En proceso de regularización", "Area Has": 0.082 }, "geometry": { "type": "MultiPolygon", "coordinates": [ [ [ [ -99.255573295567331, 19.591047947193786, 0.0 ], [ -99.255846774105407, 19.590966502386031, 0.0 ], [ -99.255918298243969, 19.591205984244077, 0.0 ], [ -99.255637617526929, 19.591280983721234, 0.0 ], [ -99.255573295567331, 19.591047947193786, 0.0 ] ] ] ] } },
{ "type": "Feature", "properties": { "Area": 1944.83, "Perimetro": 236.49, "Colonia": "1ro de Septiembre", "Status": "Zona de riesgo", "Origen": "Ejidal", "Institucio": "INSUS", "Poligono": "Mz-11", "No_Lotes": "4", "Via_de_Reg": "Liberacion de Riesgo", "Status_Gen": "En proceso de regularización", "Area Has": 0.195 }, "geometry": { "type": "MultiPolygon", "coordinates": [ [ [ [ -99.254431110258423, 19.592525797323084, 0.0 ], [ -99.255341730985066, 19.592271776418723, 0.0 ], [ -99.255382357916858, 19.592436222166974, 0.0 ], [ -99.254823542542539, 19.592601518385042, 0.0 ], [ -99.254619801632828, 19.592672582344306, 0.0 ], [ -99.254474509159124, 19.592690002741396, 0.0 ], [ -99.254431110258423, 19.592525797323084, 0.0 ] ] ] ] } },
{ "type": "Feature", "properties": { "Area": 12024.4, "Perimetro": 904.49, "Colonia": "Lomas de San Lorenzo", "Status": "Sin Antecedente Registral", "Origen": "Sin antecedente", "Institucio": "SIN DATO", "Poligono": "Lomas de San Lorenzo", "No_Lotes": "SIN DATO", "Via_de_Reg": "SIN DATO", "Status_Gen": "Irregular", "Area Has": 1.203 }, "geometry": { "type": "MultiPolygon", "coordinates": [ [ [ [ -99.226408105251622, 19.548974530171272, 0.0 ], [ -99.225520990248341, 19.546762980966005, 0.0 ], [ -99.225435404738619, 19.546796904630451, 0.0 ], [ -99.224692371055028, 19.545606641934878, 0.0 ], [ -99.224753797879231, 19.545502369783861, 0.0 ], [ -99.226559694859276, 19.548033910859271, 0.0 ], [ -99.226728424088975, 19.548852512681037, 0.0 ], [ -99.226627955842602, 19.548892105426219, 0.0 ], [ -99.226408105251622, 19.548974530171272, 0.0 ] ] ] ] } },
{ "type": "Feature", "properties": { "Area": 374967.0, "Perimetro": 3131.36, "Colonia": "Peñitas Ampliación", "Status": "En Expropiación", "Origen": "Ejidal", "Institucio": "INSUS", "Poligono": "Peñitas Ampliación", "No_Lotes": "SIN DATO", "Via_de_Reg": "Expropiación", "Status_Gen": "En proceso de regularización", "Area Has": 37.526 }, "geometry": { "type": "MultiPolygon", "coordinates": [ [ [ [ -99.217406704554321, 19.586163231456283, 0.0 ], [ -99.217738270162201, 19.591907003027327, 0.0 ], [ -99.217803312074551, 19.592459272190759, 0.0 ], [ -99.217756120119091, 19.592626073894646, 0.0 ], [ -99.217235446761876, 19.593578644034839, 0.0 ], [ -99.216951658176271, 19.594021510458511, 0.0 ], [ -99.216922090816837, 19.594232204567639, 0.0 ], [ -99.215857838670644, 19.595850502389773, 0.0 ], [ -99.214939167006762, 19.596856055400458, 0.0 ], [ -99.213377748181216, 19.598779020225237, 0.0 ], [ -99.213209878973018, 19.598156625812262, 0.0 ], [ -99.211805840575408, 19.595767156432405, 0.0 ], [ -99.217406704554321, 19.586163231456283, 0.0 ] ] ] ] } },
{ "type": "Feature", "properties": { "Area": 13233.6, "Perimetro": 1294.83, "Colonia": "San Jose el Jaral", "Status": "En Expropiacion", "Origen": "Ejidal", "Institucio": "INSUS", "Poligono": "San Jose el Jaral", "No_Lotes": "SIN DATO", "Via_de_Reg": "Expropiacion", "Status_Gen": "En proceso de regularización", "Area Has": 1.324 }, "geometry": { "type": "MultiPolygon", "coordinates": [ [ [ [ -99.213446915711486, 19.598969266189425, 0.0 ], [ -99.214066485004921, 19.599848185909764, 0.0 ], [ -99.214921875202819, 19.600288334333282, 0.0 ], [ -99.215627767720235, 19.600651550924628, 0.0 ], [ -99.216456572192001, 19.601617673032614, 0.0 ], [ -99.216853865419381, 19.602715464372611, 0.0 ], [ -99.216562988427356, 19.603311071758256, 0.0 ], [ -99.21642296207564, 19.602918823216509, 0.0 ], [ -99.216494984070977, 19.602661806570069, 0.0 ], [ -99.216470505810122, 19.602393485427985, 0.0 ], [ -99.215986509300706, 19.601586686793823, 0.0 ], [ -99.216004218855915, 19.601301185200164, 0.0 ], [ -99.215853004606018, 19.600958792789243, 0.0 ], [ -99.214901839306393, 19.60030823982936, 0.0 ], [ -99.214867924393559, 19.600385511569581, 0.0 ], [ -99.214113314667955, 19.600216645728164, 0.0 ], [ -99.21373184102643, 19.599841702142289, 0.0 ], [ -99.213446915711486, 19.598969266189425, 0.0 ] ] ] ] } },
{ "type": "Feature", "properties": { "Area": 7944.36, "Perimetro": 377.049, "Colonia": "Lomas de Guadalupe", "Status": "Integracion de Expediente", "Origen": "Propiedad Privada", "Institucio": "IMEVIS", "Poligono": "La Pradera", "No_Lotes": "52", "Via_de_Reg": "Juicios de Usucapion", "Status_Gen": "En proceso de regularización", "Area Has": 0.795 }, "geometry": { "type": "MultiPolygon", "coordinates": [ [ [ [ -99.241484578266608, 19.536620451197187, 0.0 ], [ -99.241029490805971, 19.536760876094306, 0.0 ], [ -99.24050815634368, 19.5369180766453, 0.0 ], [ -99.240352237133266, 19.536448593492985, 0.0 ], [ -99.240720828066273, 19.536285377846486, 0.0 ], [ -99.240633723188836, 19.536137244469188, 0.0 ], [ -99.240639382885135, 19.536135298679376, 0.0 ], [ -99.240636408189289, 19.536131767561177, 0.0 ], [ -99.241183381651297, 19.535879200029751, 0.0 ], [ -99.241338189219476, 19.536141193747074, 0.0 ], [ -99.241374247409425, 19.536212779340996, 0.0 ], [ -99.241484578266608, 19.536620451197187, 0.0 ] ] ] ] } },
{ "type": "Feature", "properties": { "Area": 5426.17, "Perimetro": 307.671, "Colonia": "Barrio Norte", "Status": "Integracion de Expediente", "Origen": "Propiedad Privada", "Institucio": "IMEVIS", "Poligono": "Barrio Norte", "No_Lotes": "23", "Via_de_Reg": "Juicios de Usucapion", "Status_Gen": "En proceso de regularización", "Area Has": 0.543 }, "geometry": { "type": "MultiPolygon", "coordinates": [ [ [ [ -99.25559763222661, 19.563316692054769, 0.0 ], [ -99.255606450228072, 19.563234759709147, 0.0 ], [ -99.255616174029484, 19.563149752133711, 0.0 ], [ -99.255624241350986, 19.563063371818068, 0.0 ], [ -99.255632442946535, 19.562977644931511, 0.0 ], [ -99.255654632539247, 19.562834708937118, 0.0 ], [ -99.255663046253034, 19.562763224602833, 0.0 ], [ -99.255690351157469, 19.562594821602861, 0.0 ], [ -99.255762427479922, 19.562605055523743, 0.0 ], [ -99.255837565104898, 19.562618603924015, 0.0 ], [ -99.255912526380442, 19.562632120551349, 0.0 ], [ -99.25598773509698, 19.562644242957994, 0.0 ], [ -99.256063606761117, 19.562656471950621, 0.0 ], [ -99.25613844148333, 19.562668312416669, 0.0 ], [ -99.256298664377255, 19.562695145986041, 0.0 ], [ -99.256385539250132, 19.562710124282109, 0.0 ], [ -99.256368584357261, 19.562855247657605, 0.0 ], [ -99.256293291785212, 19.562844636854759, 0.0 ], [ -99.256284168964754, 19.562916819416888, 0.0 ], [ -99.25626596867707, 19.56306080940049, 0.0 ], [ -99.256245719623692, 19.563230272519554, 0.0 ], [ -99.256238845400787, 19.563315854685587, 0.0 ], [ -99.25623207620562, 19.563400149869338, 0.0 ], [ -99.25559763222661, 19.563316692054769, 0.0 ] ] ] ] } },
{ "type": "Feature", "properties": { "Area": 7328.99, "Perimetro": 374.029, "Colonia": "El Capulin Monte Sol", "Status": "Integracion de Expediente", "Origen": "Propiedad Privada", "Institucio": "IMEVIS", "Poligono": "El Capulin LOTE 01", "No_Lotes": "33", "Via_de_Reg": "Juicios Sumarios", "Status_Gen": "En proceso de regularización", "Area Has": 0.733 }, "geometry": { "type": "MultiPolygon", "coordinates": [ [ [ [ -99.241151853686404, 19.544450117634721, 0.0 ], [ -99.240958027178536, 19.544340963761265, 0.0 ], [ -99.24058445949052, 19.54437778096511, 0.0 ], [ -99.240401800250908, 19.54438292325554, 0.0 ], [ -99.240397313336956, 19.54415702854811, 0.0 ], [ -99.240404253555496, 19.544021635662347, 0.0 ], [ -99.240471135035605, 19.543852390308047, 0.0 ], [ -99.240468538461428, 19.543768375996702, 0.0 ], [ -99.240493040480644, 19.543611946734611, 0.0 ], [ -99.240507997167867, 19.543609115420917, 0.0 ], [ -99.240498995504979, 19.543428577065214, 0.0 ], [ -99.240519765823208, 19.543425829573845, 0.0 ], [ -99.240997501433711, 19.543293558916869, 0.0 ], [ -99.241151853686404, 19.544450117634721, 0.0 ] ] ] ] } },
{ "type": "Feature", "properties": { "Area": 4392.95, "Perimetro": 305.38, "Colonia": "El Capulin Monte Sol", "Status": "Integracion de Expediente", "Origen": "Propiedad Privada", "Institucio": "IMEVIS", "Poligono": "El Capulin LOTE 03", "No_Lotes": "13", "Via_de_Reg": "Juicios Sumarios", "Status_Gen": "En proceso de regularización", "Area Has": 0.44 }, "geometry": { "type": "MultiPolygon", "coordinates": [ [ [ [ -99.23987456619102, 19.543991964778971, 0.0 ], [ -99.239515127644879, 19.543896441374834, 0.0 ], [ -99.238977900949848, 19.54378251738218, 0.0 ], [ -99.238810788784392, 19.543737994736663, 0.0 ], [ -99.238844227107563, 19.543653364629083, 0.0 ], [ -99.23905352324357, 19.543555124987364, 0.0 ], [ -99.239840079215256, 19.543485689896983, 0.0 ], [ -99.240023406034823, 19.543535295474751, 0.0 ], [ -99.23987456619102, 19.543991964778971, 0.0 ] ] ] ] } },
{ "type": "Feature", "properties": { "Area": 30056.5, "Perimetro": 773.218, "Colonia": "Fraccionamiento Sur Cerro Madrid", "Status": "Zona en conflicto legal", "Origen": "Propiedad Privada", "Institucio": "IMEVIS", "Poligono": "Cerro Madrid", "No_Lotes": "SIN DATO", "Via_de_Reg": "SIN DATO", "Status_Gen": "Irregular", "Area Has": 3.008 }, "geometry": { "type": "MultiPolygon", "coordinates": [ [ [ [ -99.246510079153538, 19.535362771289257, 0.0 ], [ -99.24644256545163, 19.535236199563101, 0.0 ], [ -99.246713814322206, 19.534846969214961, 0.0 ], [ -99.246891352116734, 19.534592206645399, 0.0 ], [ -99.246744425730625, 19.534484684754208, 0.0 ], [ -99.246678205448148, 19.534436222286633, 0.0 ], [ -99.246808265541574, 19.53434637265169, 0.0 ], [ -99.246867219742427, 19.534312028515028, 0.0 ], [ -99.24720113520101, 19.5341154897061, 0.0 ], [ -99.247248262004888, 19.534102078652889, 0.0 ], [ -99.248167065660056, 19.534140942454634, 0.0 ], [ -99.24818203276439, 19.534355428733914, 0.0 ], [ -99.248488069615107, 19.534536389899198, 0.0 ], [ -99.248403740434668, 19.534821041274011, 0.0 ], [ -99.248279888316659, 19.535245737422922, 0.0 ], [ -99.248456316494256, 19.535496231762828, 0.0 ], [ -99.2482542579815, 19.535616001570009, 0.0 ], [ -99.248129248095964, 19.535445251213716, 0.0 ], [ -99.24741707746378, 19.53613981328207, 0.0 ], [ -99.24731414504042, 19.536138202353513, 0.0 ], [ -99.24719402635229, 19.535642537409888, 0.0 ], [ -99.247033046814039, 19.535576691444046, 0.0 ], [ -99.246510079153538, 19.535362771289257, 0.0 ] ] ] ] } },
{ "type": "Feature", "properties": { "Area": 1720.81, "Perimetro": 166.78, "Colonia": "Pueblo de San Mateo Tecoloapan", "Status": "SIN DATO", "Origen": "Propiedad Privada", "Institucio": "IMEVIS", "Poligono": "San Mateo Tecoloapan", "No_Lotes": "8", "Via_de_Reg": "Inmatriculación Administrativa", "Status_Gen": "Irregular", "Area Has": 0.172 }, "geometry": { "type": "MultiPolygon", "coordinates": [ [ [ [ -99.227417805913376, 19.580170937328578, 0.0 ], [ -99.22746151923748, 19.579811593006106, 0.0 ], [ -99.227661373502173, 19.579813842289337, 0.0 ], [ -99.227720609789031, 19.579810330082658, 0.0 ], [ -99.227856662427698, 19.579806605009004, 0.0 ], [ -99.227806979461207, 19.580204237035183, 0.0 ], [ -99.227417805913376, 19.580170937328578, 0.0 ] ] ] ] } },
{ "type": "Feature", "properties": { "Area": 1523.12, "Perimetro": 170.946, "Colonia": "U.A.M (Universidad Autónoma Metropolitana)", "Status": "Lotes no contemplados en lotificacion-sin salida", "Origen": "Ejidal", "Institucio": "INSUS", "Poligono": "U.A.M Lupita", "No_Lotes": "6", "Via_de_Reg": "Expropiacion", "Status_Gen": "Irregular", "Area Has": 0.152 }, "geometry": { "type": "MultiPolygon", "coordinates": [ [ [ [ -99.254023334191785, 19.603953328095063, 0.0 ], [ -99.253842361365173, 19.603428508228653, 0.0 ], [ -99.254007297063396, 19.603380934054346, 0.0 ], [ -99.254067964214897, 19.60345258097755, 0.0 ], [ -99.254098374318374, 19.603538614829905, 0.0 ], [ -99.25416624787286, 19.603588860890952, 0.0 ], [ -99.254275879636921, 19.603888518059019, 0.0 ], [ -99.254023334191785, 19.603953328095063, 0.0 ] ] ] ] } }
]
}
