{
"type": "FeatureCollection",
"name": "SUSCEPTIBILIDAD A INUNDACIONES",
"crs": { "type": "name", "properties": { "name": "urn:ogc:def:crs:OGC:1.3:CRS84" } },
"features": [
{ "type": "Feature", "properties": { "id": 1, "CVE_MUN": 15100, "NOM_NUM": "Atizapan de Zaragoza", "CVE_ZONA": "ZI01", "TIPO_EVENT": "Inun.Urb. Fluvial", "Pob_afec": 750, "año_event": 2021, "Fuente": "CAEM", "Tirante 1": 1.5, "Tirante 2": 1.2, "Colonia": "San Jose el Jaral", "Años_Rein": 5, "Casas_Afec": 150, "EdPub_Afec": 0, "Ind_Afec": 0, "Comer_Afec": 0, "Sup_Afecm2": 31175.841, "Área_km2": 0.031, "GRADRIESGO": "Muy Alto" }, "geometry": { "type": "MultiPolygon", "coordinates": [ [ [ [ -99.22394967299924, 19.606281237392832 ], [ -99.221423902680556, 19.605086632665401 ], [ -99.22188503917026, 19.604222760083083 ], [ -99.224368887989897, 19.605422307617268 ], [ -99.22394967299924, 19.606281237392832 ] ] ] ] } },
{ "type": "Feature", "properties": { "id": 3, "CVE_MUN": 15100, "NOM_NUM": "Atizapan de Zaragoza", "CVE_ZONA": "ZI03", "TIPO_EVENT": "Inun. Urb. Pluvial", "Pob_afec": 105, "año_event": 2021, "Fuente": "CAEM", "Tirante 1": 0.45, "Tirante 2": 0.15, "Colonia": "San Juan Bosco", "Años_Rein": 3, "Casas_Afec": 15, "EdPub_Afec": 0, "Ind_Afec": 0, "Comer_Afec": 15, "Sup_Afecm2": 35255.02, "Área_km2": 0.035, "GRADRIESGO": "Medio" }, "geometry": { "type": "MultiPolygon", "coordinates": [ [ [ [ -99.236192497455264, 19.572093280150476 ], [ -99.235853632004464, 19.571915533178373 ], [ -99.240437049235595, 19.567126165962186 ], [ -99.240870238059273, 19.567475086868029 ], [ -99.236192497455264, 19.572093280150476 ] ] ] ] } },
{ "type": "Feature", "properties": { "id": 4, "CVE_MUN": 15100, "NOM_NUM": "Atizapan de Zaragoza", "CVE_ZONA": "ZI04", "TIPO_EVENT": "Ench. Pluvial", "Pob_afec": 0, "año_event": 2021, "Fuente": "CAEM", "Tirante 1": 0.3, "Tirante 2": 0.0, "Colonia": "La Condesa y las Alamedas", "Años_Rein": 3, "Casas_Afec": 0, "EdPub_Afec": 0, "Ind_Afec": 0, "Comer_Afec": 0, "Sup_Afecm2": 41407.156, "Área_km2": 0.041, "GRADRIESGO": "Medio" }, "geometry": { "type": "MultiPolygon", "coordinates": [ [ [ [ -99.247535756410642, 19.557402160734611 ], [ -99.246278111438656, 19.558416065439832 ], [ -99.246578548848632, 19.558468735640012 ], [ -99.246466758184482, 19.558804507761497 ], [ -99.245523524455507, 19.558514822050988 ], [ -99.24511828329787, 19.55832389254817 ], [ -99.244559329977008, 19.55755358846557 ], [ -99.244447539312816, 19.557356074005593 ], [ -99.244384657064245, 19.557105888675771 ], [ -99.244059765446494, 19.55696433627779 ], [ -99.243699939246213, 19.556733901875724 ], [ -99.243588148582035, 19.556615392626551 ], [ -99.243357580337147, 19.556309243329672 ], [ -99.243102557884527, 19.555933962753691 ], [ -99.243078103676737, 19.555884583665527 ], [ -99.243011727969886, 19.555756197965572 ], [ -99.243836184118152, 19.55517681507407 ], [ -99.24403880469697, 19.555519177943399 ], [ -99.24392701403282, 19.555565265197117 ], [ -99.244255399108809, 19.555940546630964 ], [ -99.244409111272049, 19.55614464669333 ], [ -99.244912169260843, 19.556368498077671 ], [ -99.245561952496331, 19.556480423653291 ], [ -99.245960206737479, 19.556526510632459 ], [ -99.246134879650228, 19.556566013746991 ], [ -99.246155840399794, 19.556776696861064 ], [ -99.246155840399794, 19.557046634198741 ], [ -99.247745363905949, 19.557184894611343 ], [ -99.247535756410642, 19.557402160734611 ] ], [ [ -99.245954246402519, 19.557029488964716 ], [ -99.245965739750318, 19.556675699351427 ], [ -99.245011791883584, 19.556585446774793 ], [ -99.244701471493187, 19.556513244677124 ], [ -99.244433293378037, 19.556365230275926 ], [ -99.244168946378835, 19.55614501347635 ], [ -99.243782003669821, 19.555661257484005 ], [ -99.243532981134337, 19.555856204103229 ], [ -99.24355596782992, 19.556054760602798 ], [ -99.243697719119353, 19.55625331685799 ], [ -99.244000377277857, 19.5565601760443 ], [ -99.244471604537338, 19.556823713467704 ], [ -99.245092245318119, 19.556971727448165 ], [ -99.245954246402519, 19.557029488964716 ] ], [ [ -99.245540485882017, 19.558206375359042 ], [ -99.245617108200648, 19.557264144912843 ], [ -99.244766600464047, 19.557148622027132 ], [ -99.245318281158063, 19.558119733708768 ], [ -99.245540485882017, 19.558206375359042 ] ], [ [ -99.245682237171465, 19.55822442569696 ], [ -99.245954246402562, 19.55832189748709 ], [ -99.246057686532694, 19.557303855885699 ], [ -99.245735872794526, 19.557264144912892 ], [ -99.245682237171465, 19.55822442569696 ] ], [ [ -99.24639482473458, 19.558145004194909 ], [ -99.247329617021677, 19.557383277801939 ], [ -99.246149633315028, 19.557289415533031 ], [ -99.24607684211233, 19.5583543880707 ], [ -99.246310540184098, 19.558166664608425 ], [ -99.246371838038996, 19.557556561847296 ], [ -99.24645229147356, 19.557571002175987 ], [ -99.24639482473458, 19.558145004194909 ] ] ] ] } },
{ "type": "Feature", "properties": { "id": 5, "CVE_MUN": 15100, "NOM_NUM": "Atizapán de Zaragoza", "CVE_ZONA": "ZI05", "TIPO_EVENT": "Inun. Urb. Pluvial", "Pob_afec": 250, "año_event": 2021, "Fuente": "CAEM/CMPCBYMA", "Tirante 1": 0.4, "Tirante 2": 1.2, "Colonia": "Residencial de Calacoaya", "Años_Rein": 2, "Casas_Afec": 40, "EdPub_Afec": 0, "Ind_Afec": 0, "Comer_Afec": 1, "Sup_Afecm2": -11948.169, "Área_km2": -0.012, "GRADRIESGO": "Medio" }, "geometry": { "type": "MultiPolygon", "coordinates": [ [ [ [ -99.239273658936526, 19.534517026892388 ], [ -99.239226143326022, 19.534402763269018 ], [ -99.239215633378535, 19.534359372828821 ], [ -99.239427933665652, 19.534282250324342 ], [ -99.239410471307124, 19.534230633277218 ], [ -99.239384634749825, 19.534100565936555 ], [ -99.239597208523648, 19.534009948658209 ], [ -99.239613603755259, 19.534043996768663 ], [ -99.23966246072294, 19.534162334569547 ], [ -99.239671517363405, 19.534347443849494 ], [ -99.239663739005252, 19.534590294071098 ], [ -99.239558957275833, 19.534631580428261 ], [ -99.23942078067239, 19.534704656189138 ], [ -99.239205135631266, 19.534797170588053 ], [ -99.239207651248421, 19.534800608265449 ], [ -99.238632983858807, 19.535125561165497 ], [ -99.238203898874602, 19.535407186483262 ], [ -99.23777481389034, 19.535761022724756 ], [ -99.236721257009449, 19.536703378728749 ], [ -99.236204056358787, 19.535995709600208 ], [ -99.236468403358018, 19.535645484445485 ], [ -99.236897488342237, 19.536053478624805 ], [ -99.238157925483463, 19.535031685950447 ], [ -99.239051748675138, 19.534592499834567 ], [ -99.239052589824112, 19.53459355362201 ], [ -99.239273658936526, 19.534517026892388 ] ] ] ] } },
{ "type": "Feature", "properties": { "id": 6, "CVE_MUN": 15100, "NOM_NUM": "Atizapan de Zaragoza", "CVE_ZONA": "ZI06", "TIPO_EVENT": "Inun. Urb. Pluvial", "Pob_afec": 115, "año_event": 2021, "Fuente": "CAEM", "Tirante 1": 0.5, "Tirante 2": 0.2, "Colonia": "Rincon Colonial", "Años_Rein": 2, "Casas_Afec": 23, "EdPub_Afec": 0, "Ind_Afec": 0, "Comer_Afec": 0, "Sup_Afecm2": 13781.532, "Área_km2": 0.014, "GRADRIESGO": "Medio" }, "geometry": { "type": "MultiPolygon", "coordinates": [ [ [ [ -99.241561871987756, 19.533690347589914 ], [ -99.241324342800041, 19.533744506824391 ], [ -99.241006360177806, 19.532498839837341 ], [ -99.240764999874173, 19.532545778187846 ], [ -99.240738182062657, 19.532383299224087 ], [ -99.241052333568959, 19.53238329922408 ], [ -99.241002529061859, 19.532238873341289 ], [ -99.241151942583173, 19.532199156200946 ], [ -99.241305187220391, 19.532191934901554 ], [ -99.241462262973542, 19.532184713601968 ], [ -99.241600183147071, 19.532173881651918 ], [ -99.241680636581592, 19.532173881651921 ], [ -99.24174193443649, 19.53218832425183 ], [ -99.241807063407308, 19.532224430745941 ], [ -99.241895179073722, 19.532285811767302 ], [ -99.241948814696741, 19.532361635349883 ], [ -99.241994788087922, 19.532437458896823 ], [ -99.242013943667558, 19.532469954691752 ], [ -99.242021605899438, 19.532469954691756 ], [ -99.242067579290591, 19.532534946262064 ], [ -99.242086734870256, 19.532650486766773 ], [ -99.242094397102093, 19.532715478264358 ], [ -99.242102059333973, 19.532769637825719 ], [ -99.242105890449892, 19.532881567528314 ], [ -99.242071410406538, 19.533000718416787 ], [ -99.242029268131276, 19.533119869217359 ], [ -99.24196030804454, 19.53318847115353 ], [ -99.241818556755106, 19.53327873681469 ], [ -99.241672974349754, 19.533329285562882 ], [ -99.241554209755876, 19.533361781178375 ], [ -99.241512067480656, 19.533372613048762 ], [ -99.241561871987756, 19.533690347589914 ] ] ] ] } },
{ "type": "Feature", "properties": { "id": 7, "CVE_MUN": 15100, "NOM_NUM": "Atizapan de Zaragoza", "CVE_ZONA": "ZI07", "TIPO_EVENT": "Inun. Urb. Fluvial", "Pob_afec": 790, "año_event": 2021, "Fuente": "CAEM", "Tirante 1": 1.0, "Tirante 2": 0.8, "Colonia": "Villas de la Hacienda", "Años_Rein": 3, "Casas_Afec": 158, "EdPub_Afec": 0, "Ind_Afec": 0, "Comer_Afec": 1, "Sup_Afecm2": 65190.641, "Área_km2": 0.065, "GRADRIESGO": "Alto" }, "geometry": { "type": "MultiPolygon", "coordinates": [ [ [ [ -99.233995418024548, 19.605969517843835 ], [ -99.234148662661781, 19.6069836429158 ], [ -99.233156403635746, 19.607070258283922 ], [ -99.233156403635746, 19.606525302482947 ], [ -99.232738811999283, 19.606806803061019 ], [ -99.232313558130983, 19.606875373640015 ], [ -99.231792526364387, 19.60726514269173 ], [ -99.231701537361062, 19.6073707049806 ], [ -99.231480290416044, 19.607273262870194 ], [ -99.230943934185788, 19.607017928171274 ], [ -99.23038459125992, 19.606967402529087 ], [ -99.230518680317488, 19.606711165099348 ], [ -99.230829000707871, 19.606043502273547 ], [ -99.232104762312801, 19.605725910335003 ], [ -99.232005153298545, 19.605162904902944 ], [ -99.232303980341172, 19.605014935199591 ], [ -99.232664105238655, 19.604704559282034 ], [ -99.232882478846705, 19.604614333612332 ], [ -99.233497372953536, 19.604462754373035 ], [ -99.233539515228799, 19.604753281122697 ], [ -99.233573995272153, 19.605065461455069 ], [ -99.23368892875007, 19.605994780823575 ], [ -99.233995418024548, 19.605969517843835 ] ] ] ] } },
{ "type": "Feature", "properties": { "id": 8, "CVE_MUN": 15100, "NOM_NUM": "Atizapan de Zaragoza", "CVE_ZONA": "ZI08", "TIPO_EVENT": "Ench. Pluvial", "Pob_afec": 0, "año_event": 2021, "Fuente": "CAEM", "Tirante 1": 0.3, "Tirante 2": 0.0, "Colonia": "El Vergel de Arboledas", "Años_Rein": 1, "Casas_Afec": 0, "EdPub_Afec": 0, "Ind_Afec": 0, "Comer_Afec": 0, "Sup_Afecm2": 4163.566, "Área_km2": 0.004, "GRADRIESGO": "Medio" }, "geometry": { "type": "MultiPolygon", "coordinates": [ [ [ [ -99.239510309406796, 19.565058138462557 ], [ -99.23929576691468, 19.565198925062543 ], [ -99.23924404684962, 19.565170045769989 ], [ -99.23917700232083, 19.565193510195591 ], [ -99.239123366697811, 19.565231414260413 ], [ -99.239111873349998, 19.56524224399163 ], [ -99.239111873349998, 19.565267513361576 ], [ -99.239063984400858, 19.565303612454585 ], [ -99.239023757683611, 19.565254878677042 ], [ -99.238889668626001, 19.565328881814899 ], [ -99.238788144053856, 19.565426349310428 ], [ -99.238613828279014, 19.565559915782675 ], [ -99.238458668083808, 19.565682652443368 ], [ -99.238190489968616, 19.565888416635509 ], [ -99.237960623012754, 19.566085155836785 ], [ -99.237861013998554, 19.566155548703666 ], [ -99.237769067216234, 19.56618081793043 ], [ -99.237675204875913, 19.566188037708809 ], [ -99.237602413673258, 19.56615915859344 ], [ -99.237539200260386, 19.566124864637281 ], [ -99.237158004225293, 19.565776509826783 ], [ -99.236947292849109, 19.565570745491765 ], [ -99.236907066131792, 19.565372200709014 ], [ -99.236688692523742, 19.565444398840143 ], [ -99.236531616770591, 19.565484107798479 ], [ -99.236506714517049, 19.565449813698716 ], [ -99.236546941234309, 19.565383030430784 ], [ -99.236600576857327, 19.565309027317831 ], [ -99.236619732437006, 19.56525307372204 ], [ -99.236661874712226, 19.56524765885694 ], [ -99.23669060808173, 19.565267513361523 ], [ -99.236738497030842, 19.565272928226054 ], [ -99.236757652610507, 19.565256683632011 ], [ -99.236843852718962, 19.565171850725928 ], [ -99.236933883943308, 19.565151996209526 ], [ -99.237000928472099, 19.565207949840399 ], [ -99.236962617312784, 19.5652945876821 ], [ -99.2369894351243, 19.565399275011988 ], [ -99.237014337377872, 19.56549493751271 ], [ -99.237056479653106, 19.565565330637259 ], [ -99.237117777508004, 19.565648358385769 ], [ -99.237175244246941, 19.565693482144304 ], [ -99.237223133196096, 19.565707921744309 ], [ -99.237259528797424, 19.565725971242536 ], [ -99.237290177724859, 19.565783729623245 ], [ -99.237500889101014, 19.565984078845865 ], [ -99.23756984918775, 19.566038227241759 ], [ -99.237656049296177, 19.56608696078246 ], [ -99.237702022687373, 19.566095985510696 ], [ -99.237769067216163, 19.566095985510643 ], [ -99.237822702839182, 19.566065301432889 ], [ -99.237887831810013, 19.566020177778505 ], [ -99.237968285244534, 19.565958809588302 ], [ -99.238217307780062, 19.565789144470326 ], [ -99.238378214649117, 19.565660090564212 ], [ -99.238359059069481, 19.565606844516914 ], [ -99.238344692384715, 19.565507572178305 ], [ -99.23833415681591, 19.565474180559796 ], [ -99.238675126133757, 19.565416422068179 ], [ -99.238782397379808, 19.565323466952321 ], [ -99.238851357466544, 19.565287367863696 ], [ -99.238985446524126, 19.565225999394556 ], [ -99.239125282255586, 19.565170045769971 ], [ -99.239293851356564, 19.565101457429481 ], [ -99.239385798138898, 19.565065358291175 ], [ -99.239510309406796, 19.565058138462557 ] ] ] ] } },
{ "type": "Feature", "properties": { "id": 9, "CVE_MUN": 15100, "NOM_NUM": "Atizapan de Zaragoza", "CVE_ZONA": "ZI09", "TIPO_EVENT": "Ench. Pluvial", "Pob_afec": 0, "año_event": 2021, "Fuente": "CAEM", "Tirante 1": 0.3, "Tirante 2": 0.0, "Colonia": "México Nuevo", "Años_Rein": 1, "Casas_Afec": 0, "EdPub_Afec": 0, "Ind_Afec": 0, "Comer_Afec": 0, "Sup_Afecm2": 911.977, "Área_km2": 0.001, "GRADRIESGO": "Medio" }, "geometry": { "type": "MultiPolygon", "coordinates": [ [ [ [ -99.266423898819895, 19.562848855715348 ], [ -99.266381756544675, 19.562937299805693 ], [ -99.265768777995746, 19.562686407259665 ], [ -99.26569981790901, 19.562621427831573 ], [ -99.265747706858136, 19.5625726932433 ], [ -99.265891373705543, 19.562614207893517 ], [ -99.26617487628441, 19.562733336830298 ], [ -99.266423898819895, 19.562848855715348 ] ] ] ] } },
{ "type": "Feature", "properties": { "id": 10, "CVE_MUN": 15100, "NOM_NUM": "Atizapan de Zaragoza", "CVE_ZONA": "ZI10", "TIPO_EVENT": "Inun. Urb. Pluvial", "Pob_afec": 85, "año_event": 2021, "Fuente": "CAEM", "Tirante 1": 0.6, "Tirante 2": 0.3, "Colonia": "Fracc. La Floresta", "Años_Rein": 1, "Casas_Afec": 17, "EdPub_Afec": 0, "Ind_Afec": 0, "Comer_Afec": 0, "Sup_Afecm2": 7086.039, "Área_km2": 0.007, "GRADRIESGO": "Alto" }, "geometry": { "type": "MultiPolygon", "coordinates": [ [ [ [ -99.243969728349896, 19.533118063902453 ], [ -99.243755185857765, 19.53315778081684 ], [ -99.243452527699262, 19.533244435868919 ], [ -99.243303114177962, 19.532854487768251 ], [ -99.243195842931911, 19.532580079281075 ], [ -99.243130713961094, 19.532522309013871 ], [ -99.243046429410597, 19.532413989707155 ], [ -99.243077078338032, 19.532374272609708 ], [ -99.243226491859346, 19.532305670327702 ], [ -99.243291620830163, 19.532269563851738 ], [ -99.243372074264727, 19.532208182824135 ], [ -99.243452527699262, 19.532143191122383 ], [ -99.243548305597528, 19.532074588742198 ], [ -99.243609603452427, 19.532042092867716 ], [ -99.243644083495795, 19.532060146132103 ], [ -99.243716874698464, 19.53224428931378 ], [ -99.243827977060462, 19.532562026074785 ], [ -99.243881612683481, 19.532717283582926 ], [ -99.243923754958743, 19.532883372845003 ], [ -99.243881612683481, 19.53289781538145 ], [ -99.243923754958743, 19.533024187520418 ], [ -99.243969728349896, 19.533118063902453 ] ] ] ] } },
{ "type": "Feature", "properties": { "id": 11, "CVE_MUN": 15100, "NOM_NUM": "Atizapan de Zaragoza", "CVE_ZONA": "ZI11", "TIPO_EVENT": "Inun. Urb. Pluvial", "Pob_afec": 1350, "año_event": 2021, "Fuente": "CMPCYB", "Tirante 1": 0.7, "Tirante 2": 0.6, "Colonia": "Las Huertas", "Años_Rein": 5, "Casas_Afec": 15, "EdPub_Afec": 0, "Ind_Afec": 0, "Comer_Afec": 0, "Sup_Afecm2": 19384.223, "Área_km2": 0.019, "GRADRIESGO": "Alto" }, "geometry": { "type": "MultiPolygon", "coordinates": [ [ [ [ -99.237330404441934, 19.540757974193891 ], [ -99.237161835340956, 19.540064764732321 ], [ -99.23696644842849, 19.539425709623046 ], [ -99.237307417746337, 19.538916630013947 ], [ -99.237418520108335, 19.53889857751609 ], [ -99.237529622470305, 19.538985229487533 ], [ -99.237717347150934, 19.538963566499042 ], [ -99.237855267324434, 19.538959956000603 ], [ -99.238096627628067, 19.5396387282739 ], [ -99.238242210033434, 19.540274172070927 ], [ -99.238334156815753, 19.540544957019918 ], [ -99.237330404441934, 19.540757974193891 ] ] ] ] } },
{ "type": "Feature", "properties": { "id": 12, "CVE_MUN": 15100, "NOM_NUM": "Atizapan de Zaragoza", "CVE_ZONA": "ZI12", "TIPO_EVENT": "Inun. Urb. Fluvial", "Pob_afec": 30, "año_event": 2021, "Fuente": "CMPCBYMA", "Tirante 1": 0.8, "Tirante 2": 0.1, "Colonia": "Rincón Colonial", "Años_Rein": 1, "Casas_Afec": 5, "EdPub_Afec": 0, "Ind_Afec": 0, "Comer_Afec": 0, "Sup_Afecm2": 2456.006, "Área_km2": 0.002, "GRADRIESGO": "Alto" }, "geometry": { "type": "MultiPolygon", "coordinates": [ [ [ [ -99.244029110646764, 19.529722231601966 ], [ -99.243764763647533, 19.529832358065114 ], [ -99.243563630061175, 19.529899156047193 ], [ -99.243370158706696, 19.529653628193486 ], [ -99.243412300981916, 19.52960307829489 ], [ -99.243452527699205, 19.529541696253972 ], [ -99.243592363430679, 19.529433374948329 ], [ -99.243764763647533, 19.529353939278042 ], [ -99.243826061502418, 19.529350328564821 ], [ -99.24384904819803, 19.529368382130077 ], [ -99.243866288219721, 19.529429764236898 ], [ -99.243881612683424, 19.529489340965355 ], [ -99.243912261610902, 19.52953447483587 ], [ -99.244029110646764, 19.529722231601966 ] ] ] ] } },
{ "type": "Feature", "properties": { "id": 13, "CVE_MUN": 15100, "NOM_NUM": "Atizapan de Zaragoza", "CVE_ZONA": "ZI13", "TIPO_EVENT": "Inun. Urb. Fluvial", "Pob_afec": 124, "año_event": 2021, "Fuente": "CMPCBYMA", "Tirante 1": 2.0, "Tirante 2": 1.8, "Colonia": "Boulevares de Atizapan", "Años_Rein": 2, "Casas_Afec": 16, "EdPub_Afec": 0, "Ind_Afec": 0, "Comer_Afec": 0, "Sup_Afecm2": 4191.787, "Área_km2": 0.004, "GRADRIESGO": "Muy Alto" }, "geometry": { "type": "MultiPolygon", "coordinates": [ [ [ [ -99.257926483685381, 19.572709170443456 ], [ -99.257815381323383, 19.572640585311063 ], [ -99.257574021019749, 19.572265171437458 ], [ -99.257401620802881, 19.571961951901109 ], [ -99.257581683251615, 19.571813951682159 ], [ -99.25778856351188, 19.571698439221681 ], [ -99.257922652569434, 19.571655122027668 ], [ -99.257914990337582, 19.571835610259271 ], [ -99.257876679178281, 19.571911415256277 ], [ -99.257907328105716, 19.572030537322377 ], [ -99.257953301496897, 19.572164098322084 ], [ -99.257991612656213, 19.572257951931324 ], [ -99.258029923815499, 19.572337366481079 ], [ -99.258072066090733, 19.572413171242079 ], [ -99.258079728322613, 19.57247092722648 ], [ -99.258052910511068, 19.572539512431131 ], [ -99.258003106003997, 19.5726008781158 ], [ -99.257926483685381, 19.572709170443456 ] ] ] ] } },
{ "type": "Feature", "properties": { "id": 2, "CVE_MUN": 15100, "NOM_NUM": "Atizapan de Zaragoza", "CVE_ZONA": "ZI02", "TIPO_EVENT": "Inund. Urb. Pluvial", "Pob_afec": 1100, "año_event": 2022, "Fuente": "CAEM", "Tirante 1": 0.7, "Tirante 2": 0.4, "Colonia": "El Potrero", "Años_Rein": 4, "Casas_Afec": 138, "EdPub_Afec": 2, "Ind_Afec": 0, "Comer_Afec": 0, "Sup_Afecm2": 232286.762, "Área_km2": 0.232, "GRADRIESGO": "Alto" }, "geometry": { "type": "MultiPolygon", "coordinates": [ [ [ [ -99.23731507997806, 19.540770610797118 ], [ -99.237338066673644, 19.54084643039544 ], [ -99.236621647994596, 19.540976406766866 ], [ -99.236349638763514, 19.541012511295918 ], [ -99.236177238546631, 19.541023342653048 ], [ -99.235571922229596, 19.541055836720158 ], [ -99.23565620678005, 19.541207475613195 ], [ -99.235778802489847, 19.542081201698789 ], [ -99.236127434039489, 19.542386282627088 ], [ -99.236230874169621, 19.542490984824624 ], [ -99.236426261082102, 19.542736493159378 ], [ -99.236656128037936, 19.543028936423806 ], [ -99.237613907020588, 19.54418065227582 ], [ -99.237920396295038, 19.545104907329087 ], [ -99.238433765829754, 19.545148231654885 ], [ -99.238403116902376, 19.545292645990088 ], [ -99.23852571261213, 19.545653681262717 ], [ -99.238694281713109, 19.545928067529712 ], [ -99.238809215191026, 19.546123025909672 ], [ -99.238862850814058, 19.546238556690362 ], [ -99.239016095451277, 19.546512941963034 ], [ -99.239100380001744, 19.546772885475217 ], [ -99.239161677856643, 19.546960622195815 ], [ -99.237813125049044, 19.546996725386236 ], [ -99.237468324615278, 19.547025607932831 ], [ -99.237031577399151, 19.54713391743644 ], [ -99.236786385979585, 19.546765664827738 ], [ -99.236464572241417, 19.546845091932109 ], [ -99.235355464179477, 19.546863143541241 ], [ -99.234646707732324, 19.546888415790576 ], [ -99.233430328424305, 19.5469524989768 ], [ -99.233366157232439, 19.546951596396983 ], [ -99.232609511836117, 19.546727756423252 ], [ -99.232506071705984, 19.546709704799007 ], [ -99.232318347025398, 19.546623056974127 ], [ -99.232184257967816, 19.546554460746435 ], [ -99.232103804533267, 19.54651474712772 ], [ -99.232023351098746, 19.546464202507838 ], [ -99.231866275345553, 19.546442540523039 ], [ -99.231812639722534, 19.546056234639352 ], [ -99.232050168910249, 19.546200648162056 ], [ -99.232218738011198, 19.546233141186811 ], [ -99.232647822995418, 19.546193427488976 ], [ -99.232992623429183, 19.546178986141829 ], [ -99.233908260136644, 19.546124831078743 ], [ -99.235651417885137, 19.546020131238503 ], [ -99.235957907159587, 19.545994858853092 ], [ -99.235666742348855, 19.54564465539071 ], [ -99.235034608220261, 19.544872038878857 ], [ -99.234107478165058, 19.543485652313898 ], [ -99.233233983732816, 19.542276164725351 ], [ -99.233050090168149, 19.542023434830845 ], [ -99.232862365487534, 19.541839302801314 ], [ -99.232954312269854, 19.541727379308288 ], [ -99.233069245747799, 19.54152519473692 ], [ -99.233153530298239, 19.541416881469566 ], [ -99.233253139312438, 19.541272463666662 ], [ -99.233308690493445, 19.541214696509439 ], [ -99.233325930515136, 19.541137071859147 ], [ -99.233739691035638, 19.541099162132639 ], [ -99.235161035045934, 19.540985432899898 ], [ -99.236015373898482, 19.540942107456768 ], [ -99.236329525404827, 19.540920444730851 ], [ -99.237053606315698, 19.540822962428273 ], [ -99.23731507997806, 19.540770610797118 ] ] ] ] } },
{ "type": "Feature", "properties": { "id": 14, "CVE_MUN": 15100, "NOM_NUM": "Atizapan de Zaragoza", "CVE_ZONA": "ZI14", "TIPO_EVENT": "Inund. Urb. Pluvial", "Pob_afec": 30, "año_event": 2021, "Fuente": "CMPCBYMA", "Tirante 1": 0.0, "Tirante 2": 5.0, "Colonia": "Los Cajones", "Años_Rein": 1, "Casas_Afec": 6, "EdPub_Afec": 0, "Ind_Afec": 0, "Comer_Afec": 0, "Sup_Afecm2": 6655.043, "Área_km2": 0.007, "GRADRIESGO": "Medio" }, "geometry": { "type": "MultiPolygon", "coordinates": [ [ [ [ -99.257551055574254, 19.539476790009395 ], [ -99.257268097912487, 19.539473326860122 ], [ -99.257155404817723, 19.539489488222745 ], [ -99.257045161572862, 19.539517193412014 ], [ -99.256954517127085, 19.539547207361657 ], [ -99.256797726734376, 19.539604926480045 ], [ -99.256591939343949, 19.539634940413407 ], [ -99.256466996999762, 19.539618779065382 ], [ -99.25639595135307, 19.539524119708673 ], [ -99.256248960359926, 19.539133937871576 ], [ -99.256302857057392, 19.539053130864403 ], [ -99.256348179280266, 19.53906236595294 ], [ -99.25643637387617, 19.539081990514457 ], [ -99.256555191595623, 19.539110850159378 ], [ -99.256617662767738, 19.53913740102816 ], [ -99.256772003310545, 19.539178958900916 ], [ -99.256850398506899, 19.539162797507263 ], [ -99.25699126487531, 19.539136246642638 ], [ -99.257081909321116, 19.539133937871576 ], [ -99.257209301515161, 19.539115467702032 ], [ -99.257279122236937, 19.539076218584832 ], [ -99.257313420135347, 19.539018499277468 ], [ -99.257384465782039, 19.53894808169462 ], [ -99.257521657375648, 19.538944618533957 ], [ -99.257589028247509, 19.538976941363476 ], [ -99.257596377797171, 19.539091225601389 ], [ -99.257551055574254, 19.539476790009395 ] ] ] ] } },
{ "type": "Feature", "properties": { "id": 15, "CVE_MUN": 15100, "NOM_NUM": "Atizapan de Zaragoza", "CVE_ZONA": "ZI15", "TIPO_EVENT": "Inund. Urba. Pluvial", "Pob_afec": 20, "año_event": 2021, "Fuente": "CMPCBYMA", "Tirante 1": 0.4, "Tirante 2": 3.0, "Colonia": "Rincon de la Charreria", "Años_Rein": 1, "Casas_Afec": 3, "EdPub_Afec": 0, "Ind_Afec": 0, "Comer_Afec": 0, "Sup_Afecm2": 1005.368, "Área_km2": 0.001, "GRADRIESGO": "Medio" }, "geometry": { "type": "MultiPolygon", "coordinates": [ [ [ [ -99.247972142520183, 19.530605112352585 ], [ -99.24773205723136, 19.530777124789189 ], [ -99.247548318489905, 19.530496594345305 ], [ -99.247744306480769, 19.53037191399153 ], [ -99.247972142520183, 19.530605112352585 ] ] ] ] } },
{ "type": "Feature", "properties": { "id": 16, "CVE_MUN": 15100, "NOM_NUM": "Atizapan de Zaragoza", "CVE_ZONA": "ZI16", "TIPO_EVENT": "Inun. Urb. Fluvial", "Pob_afec": 160, "año_event": 2021, "Fuente": "CMPCBYMA", "Tirante 1": 1.0, "Tirante 2": 1.0, "Colonia": "Adolfo Lopez Mateos", "Años_Rein": 2, "Casas_Afec": 32, "EdPub_Afec": 0, "Ind_Afec": 0, "Comer_Afec": 1, "Sup_Afecm2": 22280.718, "Área_km2": 0.022, "GRADRIESGO": "Alto" }, "geometry": { "type": "MultiPolygon", "coordinates": [ [ [ [ -99.247279447464905, 19.561522846460665 ], [ -99.247176553769691, 19.561432816857863 ], [ -99.247340693712047, 19.561056538743205 ], [ -99.247593028250307, 19.561107324797618 ], [ -99.247845362788567, 19.561167344659584 ], [ -99.248171192823392, 19.561225056044211 ], [ -99.248443126160737, 19.561250449046952 ], [ -99.248675861899883, 19.561241215228208 ], [ -99.249153582627699, 19.561275842045546 ], [ -99.24940101746617, 19.561315085762999 ], [ -99.249538209059793, 19.561333553391389 ], [ -99.249726847501009, 19.561338170298217 ], [ -99.249837090745899, 19.56137741400044 ], [ -99.249954683540423, 19.561400498526716 ], [ -99.250077176034708, 19.561425891501731 ], [ -99.250380957420575, 19.561465135182601 ], [ -99.250723936404626, 19.561573632368269 ], [ -99.250878276947446, 19.561622109810646 ], [ -99.251047316589549, 19.561659044994954 ], [ -99.251596082964056, 19.561686746377756 ], [ -99.251758385518968, 19.561696557282897 ], [ -99.25180860744166, 19.561701174179323 ], [ -99.252175472462014, 19.561749074471464 ], [ -99.252348186879004, 19.561753691366285 ], [ -99.252508652046529, 19.561773313168111 ], [ -99.25297044875002, 19.561803322977926 ], [ -99.253039044546853, 19.561687900601886 ], [ -99.253085591694685, 19.561577095043205 ], [ -99.253132138842489, 19.561493990824221 ], [ -99.253375286443713, 19.56145301581163 ], [ -99.253438370078271, 19.561461672505285 ], [ -99.253475730289026, 19.561479563004063 ], [ -99.253568824584647, 19.561530348925213 ], [ -99.253756238100962, 19.561571901030778 ], [ -99.253995098464841, 19.56150149329018 ], [ -99.254155563632366, 19.561412617901638 ], [ -99.25432215342461, 19.561405692544614 ], [ -99.254635734209984, 19.561464558069638 ], [ -99.254949314995386, 19.561519960897265 ], [ -99.255216348632956, 19.561529194699993 ], [ -99.255574026716303, 19.561515343995605 ], [ -99.255588725815656, 19.561554587654776 ], [ -99.255669570861869, 19.56156382145554 ], [ -99.256027248945244, 19.561547662303877 ], [ -99.25657111561992, 19.561501493290177 ], [ -99.25715417989278, 19.561478408778399 ], [ -99.257555955274057, 19.561432239744867 ], [ -99.257555955274057, 19.561681552368817 ], [ -99.25710518289506, 19.561718487539579 ], [ -99.256340829730618, 19.561755422701864 ], [ -99.255821461554817, 19.561783124068008 ], [ -99.255213898783055, 19.561709253747686 ], [ -99.255115904787644, 19.561713870643676 ], [ -99.255076707189474, 19.561783124068008 ], [ -99.255047308990839, 19.561912397047305 ], [ -99.25503750959129, 19.562078605011134 ], [ -99.25504240929105, 19.56224019592285 ], [ -99.255017910792191, 19.562346384148086 ], [ -99.255008111392669, 19.562450263865983 ], [ -99.25500321169288, 19.562495278389605 ], [ -99.254955439620119, 19.562846160399467 ], [ -99.254915017096977, 19.563004287897748 ], [ -99.254895418297906, 19.563097779265412 ], [ -99.254905217697456, 19.56316356945457 ], [ -99.254873369648948, 19.563375944618858 ], [ -99.254858670549623, 19.563403645706664 ], [ -99.254803548927171, 19.563411725189649 ], [ -99.254805998777073, 19.56336786513404 ], [ -99.254819472951453, 19.563291687114337 ], [ -99.254859895474553, 19.563095470837244 ], [ -99.254954214695175, 19.562226345279605 ], [ -99.254978713194049, 19.561813133876072 ], [ -99.254998311993134, 19.561709253747676 ], [ -99.25478517505303, 19.561718487539583 ], [ -99.25471657925624, 19.561698865731167 ], [ -99.25454141498939, 19.561619224248957 ], [ -99.254378499971963, 19.561561513005383 ], [ -99.254226609279016, 19.561536120051709 ], [ -99.254180062131212, 19.56158921440495 ], [ -99.254165363031873, 19.561690786162327 ], [ -99.254165363031873, 19.561822367661975 ], [ -99.254079618285871, 19.561917013937521 ], [ -99.253974274740784, 19.561926247717466 ], [ -99.253903229094092, 19.561903163266475 ], [ -99.25385668194626, 19.561875461920934 ], [ -99.253790535999329, 19.56184083523231 ], [ -99.253530851911407, 19.561711562195697 ], [ -99.253405909567221, 19.561667701677603 ], [ -99.253251569024414, 19.561686169265606 ], [ -99.2531486753292, 19.561730029778705 ], [ -99.253102128181368, 19.561750805807009 ], [ -99.253055581033536, 19.561822367661975 ], [ -99.253004134185943, 19.561887004148861 ], [ -99.252940438088913, 19.561937789941723 ], [ -99.252146686725837, 19.561875461920938 ], [ -99.250463639854232, 19.56166539322891 ], [ -99.250179457267436, 19.561577672155678 ], [ -99.249905074080203, 19.561522269347975 ], [ -99.249694386990015, 19.561485334132268 ], [ -99.249424903502586, 19.561453015811662 ], [ -99.249165219414664, 19.561416080580042 ], [ -99.248954532324476, 19.561416080580042 ], [ -99.248498860245675, 19.561328359371092 ], [ -99.248307771954558, 19.561300657926846 ], [ -99.248097084864369, 19.561272956477783 ], [ -99.247827601376926, 19.561277573386263 ], [ -99.247616914286738, 19.561254488842476 ], [ -99.247499321492214, 19.56124525502398 ], [ -99.247445424794719, 19.561236021205012 ], [ -99.247279447464905, 19.561522846460665 ] ] ] ] } },
{ "type": "Feature", "properties": { "id": 17, "CVE_MUN": 15100, "NOM_NUM": "Atizapan de Zaragoza", "CVE_ZONA": "ZI17", "TIPO_EVENT": "Inund. Urb. Pluvial", "Pob_afec": 35, "año_event": 2021, "Fuente": "CMPCBYMA", "Tirante 1": 1.5, "Tirante 2": 1.5, "Colonia": "Hipico San Miguel", "Años_Rein": 1, "Casas_Afec": 7, "EdPub_Afec": 0, "Ind_Afec": 0, "Comer_Afec": 0, "Sup_Afecm2": 11361.253, "Área_km2": 0.011, "GRADRIESGO": "Muy Alto" }, "geometry": { "type": "MultiPolygon", "coordinates": [ [ [ [ -99.231188220951424, 19.575310055841417 ], [ -99.23101673145942, 19.575319288854196 ], [ -99.230938336263065, 19.575331984245931 ], [ -99.230790120344949, 19.575365453910191 ], [ -99.230676202325242, 19.575391998811401 ], [ -99.230586782804409, 19.57540700244925 ], [ -99.230389569888601, 19.57541392720481 ], [ -99.230319749166824, 19.575422006085756 ], [ -99.230271977094077, 19.575425468463212 ], [ -99.230227879796132, 19.575424314337404 ], [ -99.229953496608928, 19.575443934475 ], [ -99.229888575586955, 19.575446242726372 ], [ -99.229497824530156, 19.575476249990569 ], [ -99.229238140442234, 19.575517798501103 ], [ -99.228949058155692, 19.575582429496134 ], [ -99.228645276769839, 19.575619361481678 ], [ -99.228459088178482, 19.575614744983998 ], [ -99.227981367450724, 19.575596278991707 ], [ -99.227621239517475, 19.575580121246773 ], [ -99.227364005279455, 19.575573196498436 ], [ -99.227253762034579, 19.575587045994869 ], [ -99.227145968639618, 19.575603203739071 ], [ -99.226317919378161, 19.575563963500198 ], [ -99.226026387241731, 19.575557038751221 ], [ -99.225847548200051, 19.575545497502198 ], [ -99.225053796836974, 19.57548779124463 ], [ -99.224647121755908, 19.575467016986799 ], [ -99.224578525959117, 19.575460092233609 ], [ -99.224563826859807, 19.575582429496144 ], [ -99.224546677910595, 19.57576939758588 ], [ -99.224554027460258, 19.57587788514342 ], [ -99.22489210674452, 19.575907892327237 ], [ -99.225168939781653, 19.57591020057194 ], [ -99.225107693534468, 19.576397239460039 ], [ -99.224546677910595, 19.57636492412918 ], [ -99.224446234065326, 19.57637646531947 ], [ -99.224456033464875, 19.57587788514347 ], [ -99.224475632263946, 19.575490099495397 ], [ -99.224240446674898, 19.575434701469366 ], [ -99.22412775358012, 19.575434701469348 ], [ -99.223809273094972, 19.575404694197406 ], [ -99.223725978198857, 19.575402385945463 ], [ -99.223593686305023, 19.575443934475071 ], [ -99.223375649665172, 19.575490099495347 ], [ -99.223360950565848, 19.575441626223711 ], [ -99.223637783602953, 19.575370070415079 ], [ -99.223797023845549, 19.575340063131076 ], [ -99.224348240069872, 19.575376995172181 ], [ -99.224850459296505, 19.575416235456473 ], [ -99.225690757807413, 19.575448550977665 ], [ -99.226055785440408, 19.575446242726372 ], [ -99.228135707993573, 19.575522415001576 ], [ -99.228451738628877, 19.575533956252315 ], [ -99.228613428721388, 19.575552422251693 ], [ -99.229088699599259, 19.575480866492384 ], [ -99.229414529634099, 19.575423160211585 ], [ -99.229833453964602, 19.575386228181074 ], [ -99.230249928445176, 19.575364299783978 ], [ -99.230513287307915, 19.575340063131069 ], [ -99.230752147671794, 19.575310055841452 ], [ -99.230861165991698, 19.575283510926663 ], [ -99.231117175304789, 19.57523503759295 ], [ -99.231188220951424, 19.575310055841417 ] ] ] ] } },
{ "type": "Feature", "properties": { "id": 18, "CVE_MUN": 15100, "NOM_NUM": "Atizapan de Zaragoza", "CVE_ZONA": "ZI18", "TIPO_EVENT": "Inun. Urb. Pluvial", "Pob_afec": 273, "año_event": 2021, "Fuente": "CMPCBYMA", "Tirante 1": 1.8, "Tirante 2": 1.8, "Colonia": "San Miguel Xochimanga", "Años_Rein": 1, "Casas_Afec": 17, "EdPub_Afec": 0, "Ind_Afec": 0, "Comer_Afec": 0, "Sup_Afecm2": 4039.418, "Área_km2": 0.004, "GRADRIESGO": "Muy Alto" }, "geometry": { "type": "MultiPolygon", "coordinates": [ [ [ [ -99.219047989841641, 19.57392278965888 ], [ -99.219038190442078, 19.573417277049305 ], [ -99.219061464016022, 19.573353799326437 ], [ -99.219424041799158, 19.573350336904475 ], [ -99.219670251712685, 19.573344566201012 ], [ -99.219671476637629, 19.573471521629006 ], [ -99.219628604264614, 19.573917018975912 ], [ -99.219047989841641, 19.57392278965888 ] ] ] ] } },
{ "type": "Feature", "properties": { "id": 19, "CVE_MUN": 15100, "NOM_NUM": "Atizapan de Zaragoza", "CVE_ZONA": "ZI19", "TIPO_EVENT": "Inun. Urb. Fluvial", "Pob_afec": 107, "año_event": 2021, "Fuente": "CMPCBYMA", "Tirante 1": 0.4, "Tirante 2": null, "Colonia": "San Miguel Xoxhimanga", "Años_Rein": 1, "Casas_Afec": 19, "EdPub_Afec": 0, "Ind_Afec": 0, "Comer_Afec": 0, "Sup_Afecm2": 4296.513, "Área_km2": 0.004, "GRADRIESGO": "Medio" }, "geometry": { "type": "MultiPolygon", "coordinates": [ [ [ [ -99.219284400355718, 19.573127587601572 ], [ -99.219242752907647, 19.57243279246136 ], [ -99.219786619582351, 19.572428175872304 ], [ -99.219838066429944, 19.573076805334047 ], [ -99.219284400355718, 19.573127587601572 ] ] ] ] } },
{ "type": "Feature", "properties": { "id": 20, "CVE_MUN": 15100, "NOM_NUM": "Atizapan de Zaragoza", "CVE_ZONA": "ZI20", "TIPO_EVENT": "Inun. Urb. Pluvial", "Pob_afec": 980, "año_event": 2021, "Fuente": "CMPCBYMA", "Tirante 1": 1.5, "Tirante 2": 2.0, "Colonia": "Las Arboledas (Mayorasgos)", "Años_Rein": 1, "Casas_Afec": 117, "EdPub_Afec": 0, "Ind_Afec": 0, "Comer_Afec": 1, "Sup_Afecm2": 155481.768, "Área_km2": 0.155, "GRADRIESGO": "Muy Alto" }, "geometry": { "type": "MultiPolygon", "coordinates": [ [ [ [ -99.223324202817651, 19.563390949375364 ], [ -99.218777281429297, 19.560288397718903 ], [ -99.218346107849356, 19.56132258823726 ], [ -99.218581293438419, 19.561599602428512 ], [ -99.221001745125761, 19.563981904827088 ], [ -99.220403981753606, 19.564166577961501 ], [ -99.217816940273991, 19.562024356597306 ], [ -99.21468113241994, 19.560325333208741 ], [ -99.215425886785269, 19.559457346960233 ], [ -99.218071724662124, 19.561285652975837 ], [ -99.21848329944298, 19.560177591198538 ], [ -99.216111844753371, 19.558497016305473 ], [ -99.216895796716884, 19.557832168656073 ], [ -99.219071263415643, 19.559485048721211 ], [ -99.220962547527591, 19.560593115257269 ], [ -99.222334463463739, 19.561793512079156 ], [ -99.223529990208092, 19.563040068550976 ], [ -99.223324202817651, 19.563390949375364 ] ] ] ] } },
{ "type": "Feature", "properties": { "id": 21, "CVE_MUN": 15100, "NOM_NUM": "Atizapan de Zaragoza", "CVE_ZONA": "ZI21", "TIPO_EVENT": "Inun. Urb. Pluvial", "Pob_afec": 75, "año_event": 2021, "Fuente": "CMPCBYMA", "Tirante 1": 0.5, "Tirante 2": 0.2, "Colonia": "Club de Golf la Hacienda", "Años_Rein": 1, "Casas_Afec": 25, "EdPub_Afec": 0, "Ind_Afec": 0, "Comer_Afec": 0, "Sup_Afecm2": 40358.893, "Área_km2": 0.04, "GRADRIESGO": "Medio" }, "geometry": { "type": "MultiPolygon", "coordinates": [ [ [ [ -99.236501945354249, 19.565535460975195 ], [ -99.234456320699408, 19.565713207158094 ], [ -99.23402514711951, 19.565897878309361 ], [ -99.230654153676383, 19.566267219977252 ], [ -99.228713872566715, 19.565399265715417 ], [ -99.225793651502656, 19.563727978921825 ], [ -99.226009238292619, 19.563358631436618 ], [ -99.226543305567816, 19.56378338097155 ], [ -99.228052413097558, 19.564595942181487 ], [ -99.229257739241461, 19.565223827584148 ], [ -99.230698250974413, 19.565944046064143 ], [ -99.230815843768951, 19.566008680898566 ], [ -99.231903577118317, 19.565879411203746 ], [ -99.233990849221158, 19.565574703655816 ], [ -99.234363226403801, 19.565450050401999 ], [ -99.234554314694918, 19.565445433612947 ], [ -99.235419111704644, 19.565403882505787 ], [ -99.23649704565446, 19.565346172616881 ], [ -99.236501945354249, 19.565535460975195 ] ] ] ] } },
{ "type": "Feature", "properties": { "id": 23, "CVE_MUN": 15100, "NOM_NUM": "Atizapan de Zaragoza", "CVE_ZONA": "ZI23", "TIPO_EVENT": "Inun. Urb. Pluvial", "Pob_afec": 150, "año_event": 2021, "Fuente": "CMPCBYMA", "Tirante 1": 1.0, "Tirante 2": 0.8, "Colonia": "Jardines de Atizapan", "Años_Rein": 1, "Casas_Afec": 42, "EdPub_Afec": 0, "Ind_Afec": 0, "Comer_Afec": 26, "Sup_Afecm2": 38508.764, "Área_km2": 0.039, "GRADRIESGO": "Alto" }, "geometry": { "type": "MultiPolygon", "coordinates": [ [ [ [ -99.235117780168693, 19.54941283652413 ], [ -99.241840168255735, 19.5586886211956 ], [ -99.241379596477188, 19.558531643712147 ], [ -99.240933723797937, 19.557940668286026 ], [ -99.239914586245419, 19.556629433826885 ], [ -99.239081637284173, 19.555373593646888 ], [ -99.237562730354895, 19.553277426860923 ], [ -99.236293708113976, 19.551513670711362 ], [ -99.234911992778265, 19.549606760825814 ], [ -99.235117780168693, 19.54941283652413 ] ] ] ] } },
{ "type": "Feature", "properties": { "id": 22, "CVE_MUN": 15100, "NOM_NUM": "Atizapan de Zaragoza", "CVE_ZONA": "ZI22", "TIPO_EVENT": "Inun. Urb. Fluvial", "Pob_afec": 65, "año_event": 2021, "Fuente": "CMPCBYMA", "Tirante 1": 0.5, "Tirante 2": 0.3, "Colonia": "El Capulin y UAM", "Años_Rein": 1, "Casas_Afec": 14, "EdPub_Afec": 0, "Ind_Afec": 0, "Comer_Afec": 0, "Sup_Afecm2": 10187.74, "Área_km2": 0.01, "GRADRIESGO": "Medio" }, "geometry": { "type": "MultiPolygon", "coordinates": [ [ [ [ -99.245269958096046, 19.60204087244642 ], [ -99.24510336830383, 19.601796238033106 ], [ -99.246147004355223, 19.600882317500403 ], [ -99.246391989343834, 19.601717770312373 ], [ -99.246813363524225, 19.60172238606167 ], [ -99.247068147912373, 19.602243964884302 ], [ -99.246877059621269, 19.602225501946027 ], [ -99.246744767727421, 19.601911631670678 ], [ -99.246489983339259, 19.601943941874335 ], [ -99.246612475833587, 19.602253196352684 ], [ -99.246416487842694, 19.602267043554257 ], [ -99.246298895048184, 19.601939326131337 ], [ -99.245965715463697, 19.601962404844944 ], [ -99.246107806757053, 19.602285506487743 ], [ -99.245946116664598, 19.602285506487789 ], [ -99.245848122669145, 19.601990099296952 ], [ -99.245559040382588, 19.602027025225382 ], [ -99.245637435578942, 19.602313200884108 ], [ -99.245426748488754, 19.602336279544087 ], [ -99.245314055394019, 19.601860858480336 ], [ -99.245755028373509, 19.601837779752174 ], [ -99.245681532876915, 19.601556219001896 ], [ -99.24581872447051, 19.601445440866797 ], [ -99.245941216964837, 19.601745464806381 ], [ -99.246264597149761, 19.601731617559956 ], [ -99.246073508858672, 19.601168495195203 ], [ -99.24582852387006, 19.601366972974866 ], [ -99.245603137680561, 19.601542371739221 ], [ -99.245363052391738, 19.601717770312312 ], [ -99.245255258996735, 19.601819316767244 ], [ -99.245269958096046, 19.60204087244642 ] ] ] ] } },
{ "type": "Feature", "properties": { "id": 24, "CVE_MUN": 15100, "NOM_NUM": "Atizapan de Zaragoza", "CVE_ZONA": "ZI24", "TIPO_EVENT": "Inund Urbana", "Pob_afec": 150, "año_event": 2020, "Fuente": "CMPCBYMA", "Tirante 1": 1.0, "Tirante 2": 1.0, "Colonia": "Ignacio Lopez Rayon", "Años_Rein": 1, "Casas_Afec": 30, "EdPub_Afec": 0, "Ind_Afec": 0, "Comer_Afec": 0, "Sup_Afecm2": 5558.203, "Área_km2": 0.006, "GRADRIESGO": "Alto" }, "geometry": { "type": "MultiPolygon", "coordinates": [ [ [ [ -99.23731598307964, 19.538825102395396 ], [ -99.236879889304674, 19.539539144813858 ], [ -99.236743368366476, 19.539788064550375 ], [ -99.236733602294677, 19.53993400694571 ], [ -99.236769893345922, 19.540044260537371 ], [ -99.236560047484573, 19.540109189657898 ], [ -99.236468112442935, 19.54006023563409 ], [ -99.236434218369709, 19.539943579250355 ], [ -99.236389087805421, 19.539710680471657 ], [ -99.236391052724855, 19.539614018796758 ], [ -99.237107584163226, 19.538707407791772 ], [ -99.237158172188984, 19.538671801671988 ], [ -99.23731598307964, 19.538825102395396 ] ] ] ] } }
]
}
